<?xml version="1.0" encoding="UTF-8"?><osm version="0.6" generator="Overpass API 0.7.58.5 b0c4acbb">
<note>The data included in this document is from www.openstreetmap.org. The data is made available under ODbL.</note>
<meta osm_base="2022-10-09T15:05:49Z"/>

  <node id="244496574" lat="48.2080161" lon="16.3417966">
    <tag k="addr:city" v="Wien"/>
    <tag k="addr:country" v="AT"/>
    <tag k="addr:housenumber" v="132"/>
    <tag k="addr:postcode" v="1080"/>
    <tag k="addr:street" v="Lerchenfelder Straße"/>
    <tag k="amenity" v="pub"/>
    <tag k="contact:facebook" v="https://www.facebook.com/cafe.anno.wien/"/>
    <tag k="description:covid19" v="Closed whenever curfew is 10pm or earlier"/>
    <tag k="name" v="Café Anno"/>
    <tag k="name:ru" v="Кафе Анно"/>
    <tag k="opening_hours" v="Sep-Jun: Su-Th 18:00-02:00; Fr 18:00-04:00; Sa 19:00-04:00; Jul-Aug: Su-Th 20:00-02:00; Fr-Sa 20:00-04:00"/>
    <tag k="opening_hours:covid19" v="Sep-Jun: Su-Th 18:00-00:00; Fr 18:00-00:00; Sa 19:00-00:00; Jul-Aug: Su-Th 20:00-00:00; Fr-Sa 20:00-00:00"/>
    <tag k="phone" v="+43 699 14093736"/>
    <tag k="sport" v="table_soccer"/>
    <tag k="wheelchair" v="limited"/>
  </node>
  <node id="252549221" lat="48.2006881" lon="16.3364734">
    <tag k="addr:city" v="Wien"/>
    <tag k="addr:country" v="AT"/>
    <tag k="addr:housenumber" v="4"/>
    <tag k="addr:postcode" v="1150"/>
    <tag k="addr:street" v="Märzstraße"/>
    <tag k="amenity" v="pub"/>
    <tag k="contact:website" v="http://www.cafeamadeus.at"/>
    <tag k="indoor_seating" v="yes"/>
    <tag k="name" v="Café Amadeus"/>
    <tag k="opening_hours" v="Mo-Fr 17:00-01:00; Sa 18:00-01:00; Su off; Jul, Aug Mo-Fr 17:00-01:00; Sa, Su off"/>
    <tag k="outdoor_seating" v="yes"/>
  </node>
  <node id="252549232" lat="48.1964606" lon="16.3203552">
    <tag k="addr:city" v="Wien"/>
    <tag k="addr:country" v="AT"/>
    <tag k="addr:housenumber" v="21"/>
    <tag k="addr:postcode" v="1150"/>
    <tag k="addr:street" v="Wurmsergasse"/>
    <tag k="amenity" v="pub"/>
    <tag k="name" v="Blue Tomato"/>
    <tag k="website" v="http://www.bluetomato.cc/"/>
    <tag k="wheelchair" v="no"/>
  </node>
  <node id="256669972" lat="48.2063736" lon="16.3489494">
    <tag k="addr:city" v="Wien"/>
    <tag k="addr:housenumber" v="45"/>
    <tag k="addr:postcode" v="1070"/>
    <tag k="addr:street" v="Lerchenfelder Straße"/>
    <tag k="amenity" v="pub"/>
    <tag k="brewery" v="Guinness"/>
    <tag k="email" v="table@shebeen.at"/>
    <tag k="indoor_seating" v="yes"/>
    <tag k="name" v="Shebeen"/>
    <tag k="opening_hours" v="Mo-Fr 15:00-00:00, Sa-Su 12:00-00:00, Su,PH 17:00-01:00"/>
    <tag k="outdoor_seating" v="yes"/>
    <tag k="phone" v="+43 1 5247900"/>
    <tag k="website" v="https://www.shebeen.at/"/>
    <tag k="wheelchair" v="limited"/>
  </node>
  <node id="267244783" lat="48.2025836" lon="16.3638175">
    <tag k="amenity" v="pub"/>
    <tag k="name" v="Sing Your Song Karaoke"/>
    <tag k="opening_hours" v="Mo-Th 20:00-02:00; Fr-Sa 20:00-04:00"/>
    <tag k="phone" v="+43 (1) 585 32 33"/>
    <tag k="smoking" v="no"/>
    <tag k="website" v="https://www.singyoursong.at/"/>
    <tag k="wheelchair" v="no"/>
  </node>
  <node id="267275362" lat="48.2162906" lon="16.3748262">
    <tag k="addr:city" v="Wien"/>
    <tag k="addr:country" v="AT"/>
    <tag k="addr:housenumber" v="4"/>
    <tag k="addr:postcode" v="1020"/>
    <tag k="addr:street" v="Floßgasse"/>
    <tag k="amenity" v="pub"/>
    <tag k="contact:facebook" v="https://facebook.com/jazzcafezwe"/>
    <tag k="cuisine" v="regional"/>
    <tag k="designation" v="Jazzcafe"/>
    <tag k="food" v="yes"/>
    <tag k="internet_access" v="wlan"/>
    <tag k="internet_access:fee" v="no"/>
    <tag k="music" v="yes"/>
    <tag k="music_genre" v="jazz"/>
    <tag k="name" v="Jazzclub ZWE"/>
    <tag k="smoking" v="yes"/>
    <tag k="website" v="https://www.zwe.cc/"/>
    <tag k="wheelchair" v="no"/>
  </node>
  <node id="269542815" lat="48.2304602" lon="16.3285222">
    <tag k="addr:city" v="Wien"/>
    <tag k="addr:country" v="AT"/>
    <tag k="addr:housenumber" v="47"/>
    <tag k="addr:postcode" v="1180"/>
    <tag k="addr:street" v="Gersthofer Straße"/>
    <tag k="amenity" v="pub"/>
    <tag k="email" v="post@cafestadtbahn.org"/>
    <tag k="name" v="Cafe Stadtbahn"/>
    <tag k="opening_hours" v="Tu-Su 20:00-02:00"/>
    <tag k="phone" v="+43 1 4791353"/>
    <tag k="sport" v="table_soccer"/>
    <tag k="wheelchair" v="limited"/>
  </node>
  <node id="281657531" lat="48.1932065" lon="16.3628298">
    <tag k="addr:city" v="Wien"/>
    <tag k="addr:country" v="AT"/>
    <tag k="addr:housenumber" v="10"/>
    <tag k="addr:postcode" v="1040"/>
    <tag k="addr:street" v="Kleine Neugasse"/>
    <tag k="air_conditioning" v="no"/>
    <tag k="amenity" v="pub"/>
    <tag k="brewery" v="Kozel;Zwettler"/>
    <tag k="cuisine" v="regional"/>
    <tag k="diet:vegetarian" v="yes"/>
    <tag k="drink:beer" v="served"/>
    <tag k="drink:coffee" v="served"/>
    <tag k="drink:tea" v="served"/>
    <tag k="drink:whisky" v="served"/>
    <tag k="drink:wine" v="served"/>
    <tag k="email" v="kristl.rupp@gmx.at"/>
    <tag k="level" v="-0.5"/>
    <tag k="name" v="Schlupfwinkel"/>
    <tag k="opening_hours" v="17:00-01:00; PH off; Jul-Aug: Sa,Su off"/>
    <tag k="opening_hours:kitchen" v="17:00-22:00; PH off; Jul-Aug: Sa,Su off"/>
    <tag k="operator" v="Christine Rupp"/>
    <tag k="outdoor_seating" v="yes"/>
    <tag k="payment:cash" v="yes"/>
    <tag k="phone" v="+43 1 5866822"/>
    <tag k="smoking" v="outside"/>
    <tag k="website" v="http://www.schlupfwinkel.at/"/>
    <tag k="wheelchair" v="no"/>
    <tag k="wine:region" v="regional"/>
    <tag k="wine:type" v="red;white"/>
  </node>
  <node id="295413458" lat="48.2242345" lon="16.3444371">
    <tag k="addr:city" v="Wien"/>
    <tag k="addr:country" v="AT"/>
    <tag k="addr:housenumber" v="22"/>
    <tag k="addr:postcode" v="1180"/>
    <tag k="addr:street" v="Kutschkergasse"/>
    <tag k="amenity" v="pub"/>
    <tag k="check_date:opening_hours" v="2021-05-25"/>
    <tag k="cuisine" v="regional"/>
    <tag k="name" v="Wilde Ehe"/>
    <tag k="opening_hours" v="Mo-Th 16:00-24:00; Fr-Sa 16:00-02:00"/>
    <tag k="website" v="https://www.wildeehe.org/"/>
  </node>
  <node id="295811116" lat="48.2044132" lon="16.3432618">
    <tag k="amenity" v="pub"/>
    <tag k="check_date" v="2022-10-01"/>
    <tag k="check_date:opening_hours" v="2021-10-09"/>
    <tag k="name" v="BackBone Irish Pub"/>
    <tag k="opening_hours" v="Su-Th 17:00-02:00, Fr,Sa 17:00-04:00"/>
    <tag k="wheelchair" v="limited"/>
  </node>
  <node id="295929282" lat="48.1976858" lon="16.3604255">
    <tag k="amenity" v="pub"/>
    <tag k="name" v="Club tresor"/>
    <tag k="wheelchair" v="limited"/>
  </node>
  <node id="298851848" lat="48.2120145" lon="16.3219258">
    <tag k="addr:housenumber" v="69"/>
    <tag k="addr:postcode" v="1160"/>
    <tag k="addr:street" v="Friedrich-Kaiser-Gasse"/>
    <tag k="amenity" v="pub"/>
    <tag k="email" v="info@bierfink.at"/>
    <tag k="name" v="Bierfink"/>
    <tag k="opening_hours" v="Mo-Su 11:00-00:00"/>
    <tag k="phone" v="+43-1-486 5286"/>
    <tag k="website" v="http://www.bierfink.at"/>
    <tag k="wheelchair" v="yes"/>
  </node>
  <node id="306005705" lat="48.2290642" lon="16.3437056">
    <tag k="addr:city" v="Wien"/>
    <tag k="addr:country" v="AT"/>
    <tag k="addr:housenumber" v="25"/>
    <tag k="addr:postcode" v="1180"/>
    <tag k="addr:street" v="Gymnasiumstraße"/>
    <tag k="amenity" v="pub"/>
    <tag k="indoor_seating" v="yes"/>
    <tag k="name" v="Anton Frank - cafe bar"/>
    <tag k="outdoor_seating" v="yes"/>
  </node>
  <node id="309293363" lat="48.2135521" lon="16.3138793">
    <tag k="addr:city" v="Wien"/>
    <tag k="addr:country" v="AT"/>
    <tag k="addr:housenumber" v="180"/>
    <tag k="addr:postcode" v="1160"/>
    <tag k="addr:street" v="Ottakringer Straße"/>
    <tag k="amenity" v="pub"/>
    <tag k="microbrewery" v="yes"/>
    <tag k="name" v="Schwarzer Rabe"/>
    <tag k="opening_hours" v="Mo-Su 16:00-01:00; PH 16:00-01:00"/>
    <tag k="phone" v="+43 1 4861177"/>
    <tag k="source" v="foot survey"/>
    <tag k="wheelchair" v="limited"/>
  </node>
  <node id="310192247" lat="48.1938844" lon="16.3417432">
    <tag k="addr:city" v="Wien"/>
    <tag k="addr:country" v="AT"/>
    <tag k="addr:housenumber" v="20"/>
    <tag k="addr:postcode" v="1060"/>
    <tag k="addr:street" v="Bürgerspitalgasse"/>
    <tag k="amenity" v="pub"/>
    <tag k="indoor_seating" v="yes"/>
    <tag k="name" v="Känguruh"/>
    <tag k="opening_hours" v="Mo-Sa 18:00-02:00"/>
    <tag k="outdoor_seating" v="yes"/>
    <tag k="website" v="http://www.kaenguruh-pub.at/"/>
  </node>
  <node id="310649397" lat="48.1965758" lon="16.3668127">
    <tag k="amenity" v="pub"/>
    <tag k="brewery" v="Guinness;Hirter"/>
    <tag k="cuisine" v="irish"/>
    <tag k="indoor_seating" v="yes"/>
    <tag k="name" v="Four Bells"/>
    <tag k="old_name" v="McAddams"/>
    <tag k="opening_hours" v="Mo-Su 16:00-24:00"/>
    <tag k="outdoor_seating" v="yes"/>
    <tag k="smoking" v="isolated"/>
    <tag k="website" v="http://www.four-bells.at/"/>
    <tag k="wheelchair" v="limited"/>
  </node>
  <node id="311820993" lat="48.1692604" lon="16.3703852">
    <tag k="addr:city" v="Wien"/>
    <tag k="addr:country" v="AT"/>
    <tag k="addr:housenumber" v="90"/>
    <tag k="addr:postcode" v="1100"/>
    <tag k="addr:street" v="Laxenburger Straße"/>
    <tag k="amenity" v="pub"/>
    <tag k="name" v="Mabel's No90"/>
    <tag k="opening_hours" v="Mo-Sa 08:00-02:00; Su 14:00-24:00; PH 14:00-02:00"/>
    <tag k="smoking" v="isolated"/>
    <tag k="website" v="https://www.mabels.at/"/>
    <tag k="wheelchair" v="no"/>
  </node>
  <node id="315893443" lat="48.2081731" lon="16.3398939">
    <tag k="addr:city" v="Wien"/>
    <tag k="addr:country" v="AT"/>
    <tag k="addr:housenumber" v="143"/>
    <tag k="addr:postcode" v="1070"/>
    <tag k="addr:street" v="Lerchenfelder Straße"/>
    <tag k="amenity" v="pub"/>
    <tag k="name" v="Buffalos Saloon"/>
    <tag k="opening_hours" v="Mo-Sa 10:00-02:00, Su 10:00-24:00"/>
    <tag k="wheelchair" v="no"/>
  </node>
  <node id="315893530" lat="48.2081797" lon="16.3412741">
    <tag k="addr:city" v="Wien"/>
    <tag k="addr:country" v="AT"/>
    <tag k="addr:housenumber" v="138"/>
    <tag k="addr:postcode" v="1080"/>
    <tag k="addr:street" v="Lerchenfelder Straße"/>
    <tag k="amenity" v="pub"/>
    <tag k="name" v="Rossi"/>
    <tag k="wheelchair" v="no"/>
  </node>
  <node id="315954466" lat="48.1935938" lon="16.3397579">
    <tag k="addr:city" v="Wien"/>
    <tag k="addr:country" v="AT"/>
    <tag k="addr:housenumber" v="6"/>
    <tag k="addr:postcode" v="1060"/>
    <tag k="addr:street" v="Kurzgasse"/>
    <tag k="amenity" v="pub"/>
    <tag k="name" v="Chupitos Bar"/>
    <tag k="opening_hours" v="Mo-Su 18:00-00:30"/>
    <tag k="sport" v="table_soccer"/>
    <tag k="website" v="https://www.facebook.com/ChupitosBarVienna/"/>
  </node>
  <node id="316012422" lat="48.2154908" lon="16.3799073">
    <tag k="addr:city" v="Wien"/>
    <tag k="addr:country" v="AT"/>
    <tag k="addr:housenumber" v="1"/>
    <tag k="addr:postcode" v="1020"/>
    <tag k="addr:street" v="Karmeliterplatz"/>
    <tag k="amenity" v="pub"/>
    <tag k="name" v="Tachles"/>
    <tag k="opening_hours" v="Mo-Th 16:00-01:00, Fr 16:00-02:00, Su 12:00-24:00, PH 12:00-24:00"/>
    <tag k="smoking" v="yes"/>
    <tag k="website" v="http://www.cafe-tachles.at/"/>
    <tag k="wheelchair" v="no"/>
  </node>
  <node id="321595780" lat="48.2031658" lon="16.3736441">
    <tag k="addr:city" v="Wien"/>
    <tag k="addr:country" v="AT"/>
    <tag k="addr:housenumber" v="1-3"/>
    <tag k="addr:postcode" v="1010"/>
    <tag k="addr:street" v="Schwarzenbergstraße"/>
    <tag k="amenity" v="pub"/>
    <tag k="brewery" v="Guinness"/>
    <tag k="name" v="Flanagans"/>
    <tag k="opening_hours" v="Su-Th 10:00-02:00; Fr,Sa 10:00-04:00"/>
    <tag k="outdoor_seating" v="yes"/>
    <tag k="smoking" v="separated"/>
    <tag k="toilets:wheelchair" v="no"/>
    <tag k="wheelchair" v="limited"/>
    <tag k="wheelchair:description" v="Der Eingang hat eine ca. 3-Finger-breite Stufe. Die Tische sind teilweise in Sitzhöhe, teilweise Stehtische. Das WC befindet sich im Keller."/>
  </node>
  <node id="323177975" lat="48.2061952" lon="16.3385130">
    <tag k="addr:city" v="Wien"/>
    <tag k="addr:country" v="AT"/>
    <tag k="addr:housenumber" v="116-118"/>
    <tag k="addr:postcode" v="1070"/>
    <tag k="addr:street" v="Neustiftgasse"/>
    <tag k="amenity" v="pub"/>
    <tag k="name" v="Escape Metalcorner"/>
    <tag k="opening_hours" v="Mo-Th 18:00-00:30; Fr-Sa 20:00-04:00"/>
    <tag k="sport" v="table_soccer"/>
    <tag k="website" v="https://www.escape-metalcorner.at/"/>
  </node>
  <node id="323196166" lat="48.2129241" lon="16.3723593">
    <tag k="amenity" v="pub"/>
    <tag k="created_by" v="Merkaartor 0.13"/>
    <tag k="name" v="Rock Theatre"/>
    <tag k="wheelchair" v="no"/>
  </node>
  <node id="323672015" lat="48.2265770" lon="16.3634463">
    <tag k="addr:city" v="Wien"/>
    <tag k="addr:country" v="AT"/>
    <tag k="addr:housenumber" v="37"/>
    <tag k="addr:postcode" v="1090"/>
    <tag k="addr:street" v="Alserbachstraße"/>
    <tag k="amenity" v="pub"/>
    <tag k="indoor_seating" v="yes"/>
    <tag k="name" v="The Golden Harp"/>
    <tag k="old_name" v="Café Rundfunk"/>
    <tag k="opening_hours" v="07:30-02:00"/>
    <tag k="outdoor_seating" v="yes"/>
    <tag k="start_date" v="2016-02"/>
    <tag k="toilets:wheelchair" v="no"/>
    <tag k="website" v="http://www.irishpubalsergrund.at/"/>
    <tag k="wheelchair" v="limited"/>
  </node>
  <node id="333653457" lat="48.2013383" lon="16.3339610">
    <tag k="addr:city" v="Wien"/>
    <tag k="addr:country" v="AT"/>
    <tag k="addr:housenumber" v="14"/>
    <tag k="addr:postcode" v="1150"/>
    <tag k="addr:street" v="Vogelweidplatz"/>
    <tag k="amenity" v="pub"/>
    <tag k="name" v="Chilinos"/>
    <tag k="opening_hours:signed" v="no"/>
    <tag k="website" v="www.chilinos.at"/>
    <tag k="wheelchair" v="no"/>
  </node>
  <node id="334355382" lat="48.2166113" lon="16.3596067">
    <tag k="addr:city" v="Wien"/>
    <tag k="addr:country" v="AT"/>
    <tag k="addr:housenumber" v="3"/>
    <tag k="addr:postcode" v="1090"/>
    <tag k="addr:street" v="Währinger Straße"/>
    <tag k="amenity" v="pub"/>
    <tag k="cuisine" v="irish"/>
    <tag k="indoor_seating" v="yes"/>
    <tag k="internet_access" v="wlan"/>
    <tag k="name" v="Charlie P's Irish Pub"/>
    <tag k="opening_hours" v="12:00-02:00"/>
    <tag k="outdoor_seating" v="yes"/>
    <tag k="phone" v="+4314097923"/>
    <tag k="smoking" v="isolated"/>
    <tag k="website" v="http://www.charlieps.at"/>
    <tag k="wheelchair" v="limited"/>
  </node>
  <node id="334390933" lat="48.2098841" lon="16.3677000">
    <tag k="addr:city" v="Wien"/>
    <tag k="addr:country" v="AT"/>
    <tag k="addr:housenumber" v="7"/>
    <tag k="addr:postcode" v="1010"/>
    <tag k="addr:street" v="Naglergasse"/>
    <tag k="amenity" v="pub"/>
    <tag k="name" v="Bockshorn Irish Pub"/>
    <tag k="note" v="Wiens ältestes Pub"/>
    <tag k="website" v="https://www.bockshornirishpub.at/"/>
  </node>
  <node id="334641013" lat="48.2123002" lon="16.3738138">
    <tag k="addr:city" v="Wien"/>
    <tag k="addr:country" v="AT"/>
    <tag k="addr:housenumber" v="10-12"/>
    <tag k="addr:postcode" v="1010"/>
    <tag k="addr:street" v="Marc-Aurel-Straße"/>
    <tag k="amenity" v="pub"/>
    <tag k="indoor_seating" v="yes"/>
    <tag k="name" v="Pickwicks"/>
    <tag k="opening_hours" v="Mo-Th 11:00-24:00; Fr-Sa 11:00-02:00; Su 12:00-24:00"/>
    <tag k="outdoor_seating" v="parklet"/>
    <tag k="phone" v="+43 (1) 533 01 82"/>
    <tag k="toilets:wheelchair" v="no"/>
    <tag k="website" v="http://www.pickwicks.at"/>
    <tag k="wheelchair" v="no"/>
  </node>
  <node id="335654627" lat="48.1823175" lon="16.3744097">
    <tag k="addr:city" v="Wien"/>
    <tag k="addr:country" v="AT"/>
    <tag k="addr:housenumber" v="6"/>
    <tag k="addr:postcode" v="1100"/>
    <tag k="addr:street" v="Columbusplatz"/>
    <tag k="amenity" v="pub"/>
    <tag k="brewery" v="various"/>
    <tag k="check_date" v="2022-09-10"/>
    <tag k="email" v="reservierung@dascolumbus.at"/>
    <tag k="fax" v="+43 1 604 23 03-33"/>
    <tag k="name" v="Columbusbräu"/>
    <tag k="opening_hours" v="Mo-Sa 09:00-24:00, So 09:00-23:00"/>
    <tag k="payment:cash" v="yes"/>
    <tag k="payment:mastercard" v="yes"/>
    <tag k="payment:visa" v="yes"/>
    <tag k="phone" v="+43 1 604 23 03-0"/>
    <tag k="ref:vatin" v="ATU 61526557"/>
    <tag k="toilets:wheelchair" v="no"/>
    <tag k="website" v="https://www.dascolumbus.at/"/>
    <tag k="wheelchair" v="limited"/>
  </node>
  <node id="337947384" lat="48.2190673" lon="16.3803407">
    <tag k="amenity" v="pub"/>
    <tag k="cuisine" v="irish"/>
    <tag k="name" v="Crowns and Swords"/>
    <tag k="opening_hours:signed" v="no"/>
    <tag k="smoking" v="yes"/>
    <tag k="wheelchair" v="limited"/>
  </node>
  <node id="338470657" lat="48.2158334" lon="16.3833419">
    <tag k="addr:city" v="Wien"/>
    <tag k="addr:housenumber" v="14"/>
    <tag k="addr:postcode" v="1020"/>
    <tag k="addr:street" v="Schmelzgasse"/>
    <tag k="amenity" v="pub"/>
    <tag k="brewery" v="yes"/>
    <tag k="indoor_seating" v="yes"/>
    <tag k="name" v="Das GEHSTEIG"/>
    <tag k="opening_hours" v="Mo-Sa 17:00-01:00, Su 17:00-24:00, PH 17:00-24:00"/>
    <tag k="outdoor_seating" v="yes"/>
    <tag k="smoking" v="isolated"/>
    <tag k="toilets:wheelchair" v="no"/>
    <tag k="wheelchair" v="limited"/>
  </node>
  <node id="338470676" lat="48.2171591" lon="16.3774265">
    <tag k="amenity" v="pub"/>
    <tag k="name" v="6er Haus"/>
    <tag k="old_name" v="Charly's Eck"/>
  </node>
  <node id="338473232" lat="48.2160352" lon="16.3784001">
    <tag k="amenity" v="pub"/>
    <tag k="indoor_seating" v="yes"/>
    <tag k="name" v="Brendl"/>
    <tag k="opening_hours" v="Mo-Su 17:00-02:00"/>
    <tag k="outdoor_seating" v="yes"/>
    <tag k="smoking" v="yes"/>
    <tag k="toilets:wheelchair" v="no"/>
    <tag k="wheelchair" v="limited"/>
  </node>
  <node id="338473233" lat="48.2155492" lon="16.3792843">
    <tag k="amenity" v="pub"/>
    <tag k="created_by" v="Potlatch 0.10f"/>
    <tag k="name" v="Casa Blanca"/>
  </node>
  <node id="344666762" lat="48.2060233" lon="16.3865177">
    <tag k="addr:city" v="Wien"/>
    <tag k="addr:country" v="AT"/>
    <tag k="addr:housenumber" v="4"/>
    <tag k="addr:postcode" v="1030"/>
    <tag k="addr:street" v="Ditscheinergasse"/>
    <tag k="amenity" v="pub"/>
    <tag k="created_by" v="Potlatch 0.10f"/>
    <tag k="name" v="'s Stammbeisl"/>
    <tag k="opening_hours" v="Mo-Fr 09:00-24:00"/>
    <tag k="wheelchair" v="no"/>
  </node>
  <node id="345289488" lat="48.2127239" lon="16.3702618">
    <tag k="addr:city" v="Wien"/>
    <tag k="addr:country" v="AT"/>
    <tag k="addr:housenumber" v="2"/>
    <tag k="addr:postcode" v="1010"/>
    <tag k="addr:street" v="Passauer Platz"/>
    <tag k="amenity" v="pub"/>
    <tag k="name" v="Beer Street"/>
    <tag k="opening_hours" v="Mo-Sa 18:00-04:00"/>
    <tag k="wheelchair" v="no"/>
  </node>
  <node id="345758417" lat="48.2189029" lon="16.4067943">
    <tag k="amenity" v="pub"/>
    <tag k="name" v="Cafe Alex"/>
  </node>
  <node id="347616912" lat="48.2063759" lon="16.3888420">
    <tag k="amenity" v="pub"/>
    <tag k="name" v="What Else Club"/>
  </node>
  <node id="352723356" lat="48.2623545" lon="16.4002636">
    <tag k="amenity" v="pub"/>
    <tag k="betting" v="sport"/>
    <tag k="name" v="Sportbar"/>
    <tag k="shop" v="bookmaker"/>
  </node>
  <node id="354558151" lat="48.2763270" lon="16.4079011">
    <tag k="amenity" v="pub"/>
    <tag k="created_by" v="Potlatch 0.10f"/>
    <tag k="name" v="Gero's Likörstube"/>
  </node>
  <node id="356313837" lat="48.2613089" lon="16.4005149">
    <tag k="amenity" v="pub"/>
    <tag k="name" v="Likör-Stube"/>
    <tag k="opening_hours:signed" v="no"/>
    <tag k="wheelchair" v="limited"/>
  </node>
  <node id="356746043" lat="48.2124198" lon="16.3734523">
    <tag k="addr:city" v="Wien"/>
    <tag k="addr:country" v="AT"/>
    <tag k="addr:housenumber" v="7"/>
    <tag k="addr:postcode" v="1010"/>
    <tag k="addr:street" v="Marc-Aurel-Straße"/>
    <tag k="amenity" v="pub"/>
    <tag k="contact:website" v="https://paddysco.at/dick-macks"/>
    <tag k="indoor_seating" v="yes"/>
    <tag k="name" v="Dick Mack's"/>
    <tag k="opening_hours" v="Mo-Su 20:00-04:00"/>
    <tag k="outdoor_seating" v="no"/>
    <tag k="phone" v="+43 676 706 81 24"/>
    <tag k="sport" v="table_soccer"/>
    <tag k="wheelchair" v="limited"/>
  </node>
  <node id="361528151" lat="48.2170264" lon="16.3380155">
    <tag k="addr:city" v="Wien"/>
    <tag k="addr:country" v="AT"/>
    <tag k="addr:housenumber" v="27"/>
    <tag k="addr:postcode" v="1170"/>
    <tag k="addr:street" v="Hernalser Hauptstraße"/>
    <tag k="amenity" v="pub"/>
    <tag k="name" v="Espresso Karawane"/>
  </node>
  <node id="361528726" lat="48.2177686" lon="16.3374533">
    <tag k="amenity" v="pub"/>
    <tag k="indoor_seating" v="yes"/>
    <tag k="name" v="'s Beisl am Eck"/>
    <tag k="outdoor_seating" v="yes"/>
  </node>
  <node id="370931029" lat="48.1970101" lon="16.3653882">
    <tag k="addr:housenumber" v="11"/>
    <tag k="addr:postcode" v="1040"/>
    <tag k="addr:street" v="Schleifmühlgasse"/>
    <tag k="amenity" v="pub"/>
    <tag k="brewery" v="Guinness"/>
    <tag k="email" v="office@johnnys-pub.at"/>
    <tag k="indoor_seating" v="yes"/>
    <tag k="name" v="Johnny's Pub"/>
    <tag k="opening_hours" v="Su-Mo 17:00-02:00; Tu-Sa 17:00-04:00"/>
    <tag k="outdoor_seating" v="yes"/>
    <tag k="phone" v="+43 1 587 19 21"/>
    <tag k="smoking" v="yes"/>
    <tag k="website" v="http://www.johnnys-pub.at"/>
    <tag k="wheelchair" v="no"/>
  </node>
  <node id="370931244" lat="48.2117807" lon="16.3632988">
    <tag k="addr:city" v="Wien"/>
    <tag k="addr:country" v="AT"/>
    <tag k="addr:housenumber" v="6"/>
    <tag k="addr:postcode" v="1010"/>
    <tag k="addr:street" v="Teinfaltstraße"/>
    <tag k="amenity" v="pub"/>
    <tag k="contact:phone" v="+43 1 5332311"/>
    <tag k="contact:website" v="http://www.mollydarcys.at"/>
    <tag k="internet_access" v="wlan"/>
    <tag k="name" v="Molly Darcy's"/>
    <tag k="opening_hours" v="Mo-Th 11:00-02:00; Fr-Sa 11:00-03:00; PH Su 14:00-01:00"/>
    <tag k="wheelchair" v="limited"/>
  </node>
  <node id="374756697" lat="48.2034128" lon="16.3863864">
    <tag k="alt_name" v="Malipop"/>
    <tag k="amenity" v="pub"/>
    <tag k="check_date:opening_hours" v="2021-11-27"/>
    <tag k="name" v="Café Malipop"/>
    <tag k="opening_hours" v="Tu-Sa 19:30-01:00"/>
    <tag k="wheelchair" v="no"/>
  </node>
  <node id="375844890" lat="48.2209527" lon="16.3641280">
    <tag k="addr:city" v="Wien"/>
    <tag k="addr:country" v="AT"/>
    <tag k="addr:housenumber" v="19b"/>
    <tag k="addr:postcode" v="1090"/>
    <tag k="addr:street" v="Grünentorgasse"/>
    <tag k="amenity" v="pub"/>
    <tag k="name" v="Luxor"/>
    <tag k="opening_hours" v="We,Th,Su 15:00-24:00, Fr,Sa 15:00-01:00"/>
    <tag k="wheelchair" v="limited"/>
  </node>
  <node id="380765915" lat="48.2614552" lon="16.4020655">
    <tag k="amenity" v="pub"/>
    <tag k="name" v="Steh 1/8 Schmied Weine"/>
  </node>
  <node id="382371488" lat="48.2000937" lon="16.3590561">
    <tag k="amenity" v="pub"/>
    <tag k="name" v="Downstairs"/>
    <tag k="smoking" v="isolated"/>
    <tag k="wheelchair" v="no"/>
  </node>
  <node id="409188525" lat="48.1942188" lon="16.3522052">
    <tag k="addr:city" v="Wien"/>
    <tag k="addr:country" v="AT"/>
    <tag k="addr:housenumber" v="32"/>
    <tag k="addr:postcode" v="1060"/>
    <tag k="addr:street" v="Magdalenenstraße"/>
    <tag k="amenity" v="pub"/>
    <tag k="contact:email" v="office@downunder.at"/>
    <tag k="contact:phone" v="+43 1 585 73 30"/>
    <tag k="indoor_seating" v="yes"/>
    <tag k="name" v="Down Under"/>
    <tag k="opening_hours" v="Mo-Fr 18:00-04:00; Sa-Su 19:00-04:00"/>
    <tag k="outdoor_seating" v="yes"/>
    <tag k="sport" v="table_soccer"/>
    <tag k="website" v="http://www.downunder.at"/>
    <tag k="wheelchair" v="no"/>
    <tag k="wheelchair:description" v="sehr nettes Lokal, leider gibt es beim Eingang Stufen und man kommt mit einem E-Rolli nicht hinein. Wenn man genug Helfer mithat, kann man mit einem mechanischen Rolli die Stufen beim Eingang überwinden."/>
  </node>
  <node id="409230019" lat="48.2084283" lon="16.3475406">
    <tag k="addr:city" v="Wien"/>
    <tag k="addr:country" v="AT"/>
    <tag k="addr:housenumber" v="8"/>
    <tag k="addr:postcode" v="1080"/>
    <tag k="addr:street" v="Pfeilgasse"/>
    <tag k="amenity" v="pub"/>
    <tag k="name" v="Living Room"/>
    <tag k="note" v="Vor einiger Zeit hat sich das Lokal von LaBoule auf living room umbenannt."/>
    <tag k="opening_hours" v="Mo-Th 18:00-02:00; Fr-Sa 18:00-04:00; Su 18:00-24:00"/>
    <tag k="phone" v="+43 1 4058243"/>
    <tag k="sport" v="table_soccer"/>
    <tag k="website" v="http://yourlivingroom.at"/>
    <tag k="wheelchair" v="limited"/>
  </node>
  <node id="410711018" lat="48.2108799" lon="16.3270790">
    <tag k="addr:city" v="Wien"/>
    <tag k="addr:country" v="AT"/>
    <tag k="addr:housenumber" v="21"/>
    <tag k="addr:postcode" v="1160"/>
    <tag k="addr:street" v="Bachgasse"/>
    <tag k="amenity" v="pub"/>
    <tag k="name" v="das Bach"/>
    <tag k="opening_hours" v="Mo-Th 20:00-02:00;Fr-Sa 20:00-04:00"/>
    <tag k="sport" v="table_soccer"/>
    <tag k="website" v="https://www.dasbach.at/"/>
  </node>
  <node id="410753771" lat="48.2134270" lon="16.3563440">
    <tag k="addr:city" v="Wien"/>
    <tag k="addr:country" v="AT"/>
    <tag k="addr:housenumber" v="18"/>
    <tag k="addr:postcode" v="1010"/>
    <tag k="addr:street" v="Landesgerichtsstraße"/>
    <tag k="amenity" v="pub"/>
    <tag k="food" v="yes"/>
    <tag k="name" v="Bogside Inn"/>
    <tag k="opening_hours" v="Mo-Fr 17:00+; Sa-Su 18:00+"/>
    <tag k="smoking" v="separated"/>
    <tag k="website" v="https://www.bogside.at/"/>
    <tag k="wheelchair" v="no"/>
  </node>
  <node id="417751942" lat="48.1886658" lon="16.3678514">
    <tag k="amenity" v="pub"/>
    <tag k="name" v="Rainer-Stüberl"/>
  </node>
  <node id="417865183" lat="48.2407662" lon="16.3486991">
    <tag k="addr:city" v="Wien"/>
    <tag k="addr:country" v="AT"/>
    <tag k="addr:housenumber" v="63"/>
    <tag k="addr:postcode" v="1190"/>
    <tag k="addr:street" v="Billrothstraße"/>
    <tag k="amenity" v="pub"/>
    <tag k="brewery" v="various"/>
    <tag k="contact:facebook" v="https://www.facebook.com/Billroth-261986630587772/"/>
    <tag k="cuisine" v="regional"/>
    <tag k="description" v="Kaffeehaus, Kaffeerestaurant, Cafe, Bar, Restaurant"/>
    <tag k="distillery" v="various"/>
    <tag k="indoor_seating" v="yes"/>
    <tag k="name" v="Cafe Billroth"/>
    <tag k="opening_hours" v="Su, PH off"/>
    <tag k="operator" v="Fam. Jäger"/>
    <tag k="outdoor_seating" v="yes"/>
  </node>
  <node id="419114021" lat="48.2251951" lon="16.3114899">
    <tag k="addr:city" v="Wien"/>
    <tag k="addr:country" v="AT"/>
    <tag k="addr:housenumber" v="212"/>
    <tag k="addr:postcode" v="1170"/>
    <tag k="addr:street" v="Hernalser Hauptstraße"/>
    <tag k="amenity" v="pub"/>
    <tag k="name" v="Schweiger's Bierbeisl - 123 Biersorten"/>
    <tag k="opening_hours" v="Mo-Su 16:00-24:00"/>
    <tag k="smoking" v="yes"/>
  </node>
  <node id="420021015" lat="48.2291086" lon="16.3712951">
    <tag k="addr:city" v="Wien"/>
    <tag k="addr:country" v="AT"/>
    <tag k="addr:housenumber" v="28"/>
    <tag k="addr:postcode" v="1200"/>
    <tag k="addr:street" v="Jägerstraße"/>
    <tag k="alt_name" v="cafe frame"/>
    <tag k="amenity" v="pub"/>
    <tag k="at_bev:addr_date" v="2018-10-01"/>
    <tag k="name" v="Café frame"/>
    <tag k="opening_hours" v="Mo-Fr 05:00-01:00, Sa-Su 06:00-01:00"/>
    <tag k="smoking" v="outside"/>
    <tag k="website" v="cafe-frame.at"/>
    <tag k="wheelchair" v="no"/>
    <tag k="wifi" v="no"/>
  </node>
  <node id="430388313" lat="48.1898635" lon="16.2678988">
    <tag k="addr:city" v="Wien"/>
    <tag k="addr:country" v="AT"/>
    <tag k="addr:housenumber" v="23"/>
    <tag k="addr:postcode" v="1130"/>
    <tag k="addr:street" v="Firmiangasse"/>
    <tag k="amenity" v="pub"/>
    <tag k="email" v="bierstube@treibts.org"/>
    <tag k="name" v="Kleine Ober St. Veiter Bierstube"/>
    <tag k="website" v="http://bierstube.treibts.org/"/>
  </node>
  <node id="432692936" lat="48.2014832" lon="16.3458280">
    <tag k="addr:city" v="Wien"/>
    <tag k="addr:country" v="AT"/>
    <tag k="addr:housenumber" v="11"/>
    <tag k="addr:postcode" v="1070"/>
    <tag k="addr:street" v="Bandgasse"/>
    <tag k="amenity" v="pub"/>
    <tag k="indoor_seating" v="yes"/>
    <tag k="name" v="Espresso Benzin &amp; Groove"/>
    <tag k="opening_hours" v="Mo-Fr 18:00-02:00"/>
    <tag k="outdoor_seating" v="yes"/>
    <tag k="phone" v="+43 699 10738494"/>
    <tag k="sport" v="table_soccer"/>
  </node>
  <node id="434487717" lat="48.1987890" lon="16.3971650">
    <tag k="addr:city" v="Wien"/>
    <tag k="addr:country" v="AT"/>
    <tag k="addr:housenumber" v="15a"/>
    <tag k="addr:postcode" v="1030"/>
    <tag k="addr:street" v="Apostelgasse"/>
    <tag k="amenity" v="pub"/>
    <tag k="name" v="Kleinbonum"/>
    <tag k="opening_hours" v="Mo 11:30-24:00; Tu-Fr 00:00-02:00,11:30-24:00; Sa 00:00-02:00,19:00-24:00; Su 00:00-02:00"/>
    <tag k="phone" v="+43 1 7180401"/>
    <tag k="website" v="http://www.kleinbonum.at/"/>
    <tag k="wheelchair" v="no"/>
  </node>
  <node id="441075962" lat="48.2017310" lon="16.3361592">
    <tag k="addr:city" v="Wien"/>
    <tag k="addr:country" v="AT"/>
    <tag k="addr:housenumber" v="2a"/>
    <tag k="addr:postcode" v="1150"/>
    <tag k="addr:street" v="Hütteldorfer Straße"/>
    <tag k="amenity" v="pub"/>
    <tag k="name" v="Pub by Charles"/>
    <tag k="wheelchair" v="yes"/>
  </node>
  <node id="441571054" lat="48.3042644" lon="16.3219230">
    <tag k="amenity" v="pub"/>
    <tag k="name" v="Leopoldi"/>
    <tag k="wheelchair" v="no"/>
  </node>
  <node id="441595498" lat="48.2115620" lon="16.3895739">
    <tag k="addr:city" v="Wien"/>
    <tag k="addr:country" v="AT"/>
    <tag k="addr:housenumber" v="6"/>
    <tag k="addr:postcode" v="1030"/>
    <tag k="addr:street" v="Löwengasse"/>
    <tag k="amenity" v="pub"/>
    <tag k="name" v="Red Lion"/>
    <tag k="wheelchair" v="no"/>
  </node>
  <node id="442065626" lat="48.1938763" lon="16.3344034">
    <tag k="addr:city" v="Wien"/>
    <tag k="addr:country" v="AT"/>
    <tag k="addr:housenumber" v="152"/>
    <tag k="addr:postcode" v="1150"/>
    <tag k="addr:street" v="Mariahilfer Straße"/>
    <tag k="amenity" v="pub"/>
    <tag k="cuisine" v="austrian"/>
    <tag k="name" v="Mariahilfer Bräu"/>
    <tag k="website" v="www.mariahilferbraeu.at"/>
    <tag k="wheelchair" v="no"/>
  </node>
  <node id="442571782" lat="48.1983476" lon="16.3432741">
    <tag k="amenity" v="pub"/>
    <tag k="contact:website" v="http://www.radiobar.berlin"/>
    <tag k="indoor_seating" v="yes"/>
    <tag k="name" v="Radio - The Label-Bar"/>
    <tag k="opening_hours" v="Mo-Th 18:00-02:00, Fr-Sa 18:00-04:00"/>
    <tag k="opening_hours:signed" v="no"/>
    <tag k="outdoor_seating" v="yes"/>
  </node>
  <node id="442972884" lat="48.2027087" lon="16.3457249">
    <tag k="amenity" v="pub"/>
    <tag k="name" v="Bierbaron"/>
    <tag k="opening_hours" v="We-Sa 19:00-02:00"/>
  </node>
  <node id="443025467" lat="48.2040739" lon="16.3551305">
    <tag k="addr:city" v="Wien"/>
    <tag k="addr:country" v="AT"/>
    <tag k="addr:housenumber" v="17A"/>
    <tag k="addr:postcode" v="1070"/>
    <tag k="addr:street" v="Spittelberggasse"/>
    <tag k="amenity" v="pub"/>
    <tag k="name" v="The Duke"/>
    <tag k="opening_hours" v="Mo-Fr 17:00-02:00;Sa-Su 15:00-02:00"/>
    <tag k="phone" v="+43 1 99 00232"/>
    <tag k="sport" v="table_soccer"/>
    <tag k="website" v="http://www.dukepub.at/"/>
    <tag k="wheelchair" v="no"/>
  </node>
  <node id="444247110" lat="48.2117842" lon="16.3816056">
    <tag k="addr:city" v="Wien"/>
    <tag k="addr:housenumber" v="4"/>
    <tag k="addr:postcode" v="1010"/>
    <tag k="addr:street" v="Franz-Josefs-Kai"/>
    <tag k="amenity" v="pub"/>
    <tag k="brewery" v="pilsner_urquell;kozel;various"/>
    <tag k="email" v="contact@badeschiff.at"/>
    <tag k="name" v="Badeschiff Wien"/>
    <tag k="opening_hours" v="Mo-Su 08:00-1:00"/>
    <tag k="opening_hours:covid19" v="same"/>
    <tag k="phone" v="+43 660 31 24 703"/>
    <tag k="smoking" v="outside"/>
    <tag k="sport" v="swimming"/>
    <tag k="toilets:wheelchair" v="yes"/>
    <tag k="website" v="www.badeschiff.at"/>
    <tag k="wheelchair" v="yes"/>
  </node>
  <node id="452658942" lat="48.2018145" lon="16.3100744">
    <tag k="addr:city" v="Wien"/>
    <tag k="addr:country" v="AT"/>
    <tag k="addr:housenumber" v="7"/>
    <tag k="addr:postcode" v="1140"/>
    <tag k="addr:street" v="Sampogasse"/>
    <tag k="amenity" v="pub"/>
    <tag k="name" v="Megiddo"/>
    <tag k="outdoor_seating" v="no"/>
    <tag k="sport" v="table_soccer"/>
    <tag k="website" v="https://www.megiddo.rocks/"/>
    <tag k="wheelchair" v="no"/>
  </node>
  <node id="457352904" lat="48.2131929" lon="16.5297307">
    <tag k="addr:city" v="Wien"/>
    <tag k="addr:country" v="AT"/>
    <tag k="addr:housenumber" v="125"/>
    <tag k="addr:postcode" v="1220"/>
    <tag k="addr:street" v="Eßlinger Hauptstraße"/>
    <tag k="amenity" v="pub"/>
    <tag k="name" v="Kaffeemühle"/>
  </node>
  <node id="463862679" lat="48.2322117" lon="16.3541870">
    <tag k="addr:city" v="Wien"/>
    <tag k="addr:country" v="AT"/>
    <tag k="addr:housenumber" v="185"/>
    <tag k="addr:postcode" v="1190"/>
    <tag k="addr:street" v="Stadtbahnbogen"/>
    <tag k="amenity" v="pub"/>
    <tag k="contact:email" v="contact@respawn.at"/>
    <tag k="contact:facebook" v="https://www.facebook.com/respawnvienna/"/>
    <tag k="contact:phone" v="+43 660 8295697"/>
    <tag k="indoor_seating" v="yes"/>
    <tag k="name" v="respawn"/>
    <tag k="old_name" v="Shriaz"/>
    <tag k="outdoor_seating" v="yes"/>
    <tag k="website" v="http://respawn.at/"/>
  </node>
  <node id="470017960" lat="48.1967165" lon="16.3871844">
    <tag k="addr:city" v="Wien"/>
    <tag k="addr:country" v="AT"/>
    <tag k="addr:housenumber" v="67"/>
    <tag k="addr:postcode" v="1030"/>
    <tag k="addr:street" v="Ungargasse"/>
    <tag k="amenity" v="pub"/>
    <tag k="brewery" v="Guinness;starobrno"/>
    <tag k="name" v="Mickes Finn's Irish Pub"/>
    <tag k="opening_hours" v="Mo-Th 17:00-24:00; Fr-Sa 18:00-24:00"/>
    <tag k="phone" v="+43 680 3340027"/>
    <tag k="website" v="https://www.mickeyfinns.at/"/>
    <tag k="wheelchair" v="limited"/>
  </node>
  <node id="470624579" lat="48.1296976" lon="16.3104315">
    <tag k="amenity" v="pub"/>
    <tag k="name" v="Café Rumpelstilzchen"/>
    <tag k="wheelchair" v="yes"/>
  </node>
  <node id="476340834" lat="48.1846847" lon="16.3474687">
    <tag k="addr:city" v="Wien"/>
    <tag k="addr:country" v="AT"/>
    <tag k="addr:housenumber" v="46"/>
    <tag k="addr:postcode" v="1050"/>
    <tag k="addr:street" v="Arbeitergasse"/>
    <tag k="amenity" v="pub"/>
    <tag k="diet:vegetarian" v="yes"/>
    <tag k="indoor_seating" v="yes"/>
    <tag k="name" v="Rupps"/>
    <tag k="opening_hours" v="Mo-Th 18:00-02:00; Fr,Sa 19:00-04:00; Oct-Apr Su 18:00-02:00"/>
    <tag k="outdoor_seating" v="no"/>
    <tag k="phone" v="+43 (1) 545 22 84"/>
    <tag k="smoking" v="isolated"/>
    <tag k="sport" v="table_soccer"/>
    <tag k="website" v="https://www.rupps.at/"/>
    <tag k="wheelchair" v="no"/>
    <tag k="wikidata" v="Q7380425"/>
  </node>
  <node id="497741074" lat="48.3042034" lon="16.3255192">
    <tag k="amenity" v="pub"/>
    <tag k="name" v="Stehzeit"/>
    <tag k="opening_hours" v="Mo,Fr 09:00-22:00; Tu-Th 17:00-23:00; Sa 09:00-13:00"/>
    <tag k="wheelchair" v="limited"/>
  </node>
  <node id="497742657" lat="48.3047963" lon="16.3251113">
    <tag k="addr:city" v="Klosterneuburg"/>
    <tag k="addr:country" v="AT"/>
    <tag k="addr:housenumber" v="3"/>
    <tag k="addr:postcode" v="3400"/>
    <tag k="addr:street" v="Rathausplatz"/>
    <tag k="amenity" v="pub"/>
    <tag k="name" v="The Golden Harp Irish Pub"/>
    <tag k="outdoor_seating" v="yes"/>
    <tag k="website" v="https://www.goldenharp3400.at/"/>
  </node>
  <node id="527555531" lat="48.2165912" lon="16.3276919">
    <tag k="addr:city" v="Wien"/>
    <tag k="addr:country" v="AT"/>
    <tag k="addr:housenumber" v="16"/>
    <tag k="addr:postcode" v="1170"/>
    <tag k="addr:street" v="Parhamerplatz"/>
    <tag k="amenity" v="pub"/>
    <tag k="name" v="Jetzt"/>
    <tag k="opening_hours" v="Mo-Sa 18:00-04:00; Su 18:00-02:00"/>
    <tag k="sport" v="table_soccer"/>
    <tag k="website" v="https://www.dasjetzt.at/"/>
    <tag k="wheelchair" v="limited"/>
  </node>
  <node id="563271467" lat="48.1969042" lon="16.3641963">
    <tag k="amenity" v="pub"/>
    <tag k="name" v="schik"/>
  </node>
  <node id="567066325" lat="48.2042682" lon="16.3695268">
    <tag k="addr:city" v="Wien"/>
    <tag k="addr:country" v="AT"/>
    <tag k="amenity" v="pub"/>
    <tag k="contact:website" v="http://www.crossfield.at"/>
    <tag k="description" v="Australian pub"/>
    <tag k="indoor_seating" v="yes"/>
    <tag k="internet_access" v="wlan"/>
    <tag k="name" v="Crossfield's"/>
    <tag k="opening_hours" v="Mo-Th 10:00-01:00; Fr-Sa 10:00-02:00; Su 10:00-24:00"/>
    <tag k="outdoor_seating" v="yes"/>
    <tag k="phone" v="+43 (0)1/24100-230"/>
    <tag k="sport" v="table_soccer"/>
    <tag k="wheelchair" v="limited"/>
    <tag k="wheelchair:description" v="Keller nicht zugänglich (steile Treppe)"/>
  </node>
  <node id="567096858" lat="48.2119851" lon="16.3738827">
    <tag k="addr:city" v="Wien"/>
    <tag k="addr:country" v="AT"/>
    <tag k="addr:housenumber" v="8"/>
    <tag k="addr:postcode" v="1010"/>
    <tag k="addr:street" v="Salzgasse"/>
    <tag k="amenity" v="pub"/>
    <tag k="name" v="Salzbar"/>
    <tag k="opening_hours" v="Mo-Th 19:00-02:00; Fr-Sa 19:00-04:00; Su 19:00-02:00"/>
    <tag k="phone" v="+43 676 844 057 306"/>
    <tag k="website" v="http://www.salzbar.at"/>
    <tag k="wheelchair" v="yes"/>
  </node>
  <node id="567097850" lat="48.2093633" lon="16.3781622">
    <tag k="addr:city" v="Wien"/>
    <tag k="addr:country" v="AT"/>
    <tag k="addr:housenumber" v="11"/>
    <tag k="addr:postcode" v="1010"/>
    <tag k="addr:street" v="Schönlaterngasse"/>
    <tag k="amenity" v="pub"/>
    <tag k="name" v="Enrico Panigl nfg."/>
    <tag k="website" v="https://www.enrico-panigl.at/"/>
    <tag k="wheelchair" v="no"/>
    <tag k="wifi" v="no"/>
  </node>
  <node id="600710635" lat="48.1818105" lon="16.3590958">
    <tag k="alt_name" v="1. Wiener Getränkebörse"/>
    <tag k="amenity" v="pub"/>
    <tag k="name" v="Flow Coffee Lounge"/>
    <tag k="wheelchair" v="yes"/>
  </node>
  <node id="618477202" lat="48.2059833" lon="16.3306039">
    <tag k="addr:city" v="Wien"/>
    <tag k="addr:country" v="AT"/>
    <tag k="addr:housenumber" v="32"/>
    <tag k="addr:postcode" v="1160"/>
    <tag k="addr:street" v="Herbststraße"/>
    <tag k="amenity" v="pub"/>
    <tag k="name" v="Etno Restaurant Konak"/>
  </node>
  <node id="660130435" lat="48.1921131" lon="16.3941953">
    <tag k="addr:city" v="Wien"/>
    <tag k="addr:country" v="AT"/>
    <tag k="addr:housenumber" v="68"/>
    <tag k="addr:postcode" v="1030"/>
    <tag k="addr:street" v="Rennweg"/>
    <tag k="amenity" v="pub"/>
    <tag k="email" v="no1@cooperspub.at"/>
    <tag k="name" v="Cooper's No.1"/>
    <tag k="opening_hours" v="Mo-Fr 10:00-01:00; Sa-Su 17:00-01:00"/>
    <tag k="phone" v="+43 (1) 9668180"/>
    <tag k="website" v="www.cooperspub.at"/>
    <tag k="wheelchair" v="no"/>
  </node>
  <node id="683569941" lat="48.2021466" lon="16.3506666">
    <tag k="addr:city" v="Wien"/>
    <tag k="addr:country" v="AT"/>
    <tag k="addr:housenumber" v="35"/>
    <tag k="addr:postcode" v="1070"/>
    <tag k="addr:street" v="Siebensterngasse"/>
    <tag k="amenity" v="pub"/>
    <tag k="email" v="cafevoodoo1070@gmail.com"/>
    <tag k="indoor_seating" v="yes"/>
    <tag k="name" v="Café Voodoo"/>
    <tag k="opening_hours" v="Tu-Sa 19:00-02:00"/>
    <tag k="outdoor_seating" v="no"/>
    <tag k="phone" v="0043 1 523 56 52"/>
    <tag k="wheelchair" v="yes"/>
  </node>
  <node id="683569946" lat="48.2026591" lon="16.3565671">
    <tag k="addr:city" v="Wien"/>
    <tag k="addr:country" v="AT"/>
    <tag k="addr:housenumber" v="5"/>
    <tag k="addr:postcode" v="1070"/>
    <tag k="addr:street" v="Siebensterngasse"/>
    <tag k="amenity" v="pub"/>
    <tag k="check_date:opening_hours" v="2022-05-29"/>
    <tag k="contact:phone" v="+43 699 10627345"/>
    <tag k="name" v="Kreisky"/>
    <tag k="opening_hours" v="Mo-Su 18:00-04:00"/>
    <tag k="wheelchair" v="limited"/>
  </node>
  <node id="701320966" lat="48.2030695" lon="16.3569286">
    <tag k="addr:city" v="Wien"/>
    <tag k="addr:country" v="AT"/>
    <tag k="addr:housenumber" v="3"/>
    <tag k="addr:postcode" v="1070"/>
    <tag k="addr:street" v="Breite Gasse"/>
    <tag k="amenity" v="pub"/>
    <tag k="condition" v="bad"/>
    <tag k="disused:amenity" v="yes"/>
    <tag k="name" v="Depot"/>
    <tag k="wheelchair" v="no"/>
  </node>
  <node id="727641972" lat="48.1628576" lon="16.2789749">
    <tag k="amenity" v="pub"/>
    <tag k="name" v="Café Gold Wettpunkt"/>
    <tag k="opening_hours" v="Mo-Fr 07:00-22:00; Sa 08:00-21:00; Su,PH 09:00-21:00"/>
    <tag k="wheelchair" v="limited"/>
  </node>
  <node id="761213100" lat="48.1985666" lon="16.3539331">
    <tag k="addr:city" v="Wien"/>
    <tag k="addr:country" v="AT"/>
    <tag k="addr:housenumber" v="10"/>
    <tag k="addr:postcode" v="1060"/>
    <tag k="addr:street" v="Barnabitengasse"/>
    <tag k="alt_name" v="Ammutson"/>
    <tag k="amenity" v="pub"/>
    <tag k="name" v="Ammutsøn Craft Beer Dive"/>
    <tag k="phone" v="+43 664 4799130"/>
    <tag k="website" v="https://www.ammutson.com"/>
    <tag k="wheelchair" v="no"/>
  </node>
  <node id="767358656" lat="48.2050353" lon="16.3527009">
    <tag k="amenity" v="pub"/>
    <tag k="name" v="Morgenstern"/>
    <tag k="opening_hours" v="Mo-Su 18:00-02:00"/>
    <tag k="sport" v="table_soccer"/>
    <tag k="website" v="http://www.morgenstern.at/"/>
    <tag k="wheelchair" v="no"/>
  </node>
  <node id="810356762" lat="48.1762582" lon="16.3561788">
    <tag k="amenity" v="pub"/>
    <tag k="name" v="Café Snob"/>
  </node>
  <node id="872404421" lat="48.1972869" lon="16.3438518">
    <tag k="addr:city" v="Wien"/>
    <tag k="addr:country" v="AT"/>
    <tag k="addr:housenumber" v="3"/>
    <tag k="addr:postcode" v="1070"/>
    <tag k="addr:street" v="Schottenfeldgasse"/>
    <tag k="amenity" v="pub"/>
    <tag k="contact:website" v="https://www.goldenharp1070.at"/>
    <tag k="indoor_seating" v="yes"/>
    <tag k="name" v="The Golden Harp"/>
    <tag k="opening_hours" v="Tu-Sa 15:30-02:00, PH,Su,Mo 15:30-24:00"/>
    <tag k="outdoor_seating" v="yes"/>
    <tag k="wheelchair" v="limited"/>
  </node>
  <node id="902496928" lat="48.2040067" lon="16.3756645">
    <tag k="addr:city" v="Wien"/>
    <tag k="addr:country" v="AT"/>
    <tag k="addr:housenumber" v="8"/>
    <tag k="addr:postcode" v="1010"/>
    <tag k="addr:street" v="Hegelgasse"/>
    <tag k="amenity" v="pub"/>
    <tag k="check_date" v="2022-09-10"/>
    <tag k="cuisine" v="pizza;sandwich"/>
    <tag k="indoor_seating" v="yes"/>
    <tag k="internet_access" v="wlan"/>
    <tag k="internet_access:fee" v="customers"/>
    <tag k="name" v="Roo Bar"/>
    <tag k="opening_hours" v="Mo-Th 17:00-02:00; Fr-Su 17:00-04:00"/>
    <tag k="outdoor_seating" v="yes"/>
    <tag k="payment:cards" v="yes"/>
    <tag k="payment:cash" v="yes"/>
    <tag k="phone" v="+43 664 2452002"/>
    <tag k="source" v="survey"/>
    <tag k="website" v="http://www.roobar.at/"/>
    <tag k="wheelchair" v="no"/>
  </node>
  <node id="906476541" lat="48.1759397" lon="16.3657453">
    <tag k="amenity" v="pub"/>
    <tag k="name" v="Café MB"/>
    <tag k="wheelchair" v="no"/>
  </node>
  <node id="913272967" lat="48.1980275" lon="16.3534382">
    <tag k="addr:city" v="Wien"/>
    <tag k="addr:country" v="AT"/>
    <tag k="addr:housenumber" v="6"/>
    <tag k="addr:postcode" v="1060"/>
    <tag k="addr:street" v="Schadekgasse"/>
    <tag k="amenity" v="pub"/>
    <tag k="name" v="futuregarden"/>
    <tag k="wheelchair" v="limited"/>
  </node>
  <node id="914017544" lat="48.2218019" lon="16.3849318">
    <tag k="amenity" v="pub"/>
    <tag k="name" v="Xi"/>
  </node>
  <node id="915174265" lat="48.1803104" lon="16.3739704">
    <tag k="amenity" v="pub"/>
    <tag k="name" v="Café Gloria"/>
    <tag k="opening_hours" v="Mo-Sa 08:00-24:00; PH,Su 09:00-23:00"/>
  </node>
  <node id="915964024" lat="48.1813613" lon="16.3771461">
    <tag k="amenity" v="pub"/>
    <tag k="name" v="s'Stüberl"/>
    <tag k="wheelchair" v="no"/>
  </node>
  <node id="916277771" lat="48.1765186" lon="16.3739380">
    <tag k="amenity" v="pub"/>
    <tag k="name" v="DaCapo"/>
    <tag k="wheelchair" v="no"/>
  </node>
  <node id="921127554" lat="48.1798049" lon="16.3663402">
    <tag k="amenity" v="pub"/>
    <tag k="name" v="10er Imbiß"/>
  </node>
  <node id="927883779" lat="48.2244865" lon="16.3530404">
    <tag k="addr:city" v="Wien"/>
    <tag k="addr:country" v="AT"/>
    <tag k="addr:housename" v="Clash"/>
    <tag k="addr:housenumber" v="9"/>
    <tag k="addr:postcode" v="1090"/>
    <tag k="addr:street" v="Fluchtgasse"/>
    <tag k="amenity" v="pub"/>
    <tag k="check_date:opening_hours" v="2021-06-18"/>
    <tag k="email" v="clashwien@gmx.at"/>
    <tag k="indoor_seating" v="yes"/>
    <tag k="internet_access" v="wlan"/>
    <tag k="internet_access:fee" v="no"/>
    <tag k="microbrewery" v="no"/>
    <tag k="name" v="Clash"/>
    <tag k="opening_hours" v="Mo-Su 18:00-01:30"/>
    <tag k="outdoor_seating" v="no"/>
    <tag k="phone" v="+4319224830"/>
    <tag k="smoking" v="isolated"/>
    <tag k="website" v="http://www.clash.at"/>
    <tag k="wheelchair" v="no"/>
  </node>
  <node id="930757008" lat="48.1784939" lon="16.3732554">
    <tag k="amenity" v="pub"/>
    <tag k="name" v="Tropikana"/>
  </node>
  <node id="945128195" lat="48.1770636" lon="16.3659249">
    <tag k="amenity" v="pub"/>
    <tag k="name" v="Peters Pup"/>
    <tag k="wheelchair" v="no"/>
  </node>
  <node id="950536104" lat="48.2042256" lon="16.3846290">
    <tag k="addr:city" v="Wien"/>
    <tag k="addr:country" v="AT"/>
    <tag k="addr:housenumber" v="2"/>
    <tag k="addr:postcode" v="1030"/>
    <tag k="addr:street" v="Ungargasse"/>
    <tag k="amenity" v="pub"/>
    <tag k="name" v="Gossip no2 - The Pub"/>
    <tag k="opening_hours" v="Mo 00:00-02:00,16:00-24:00; Tu-Fr 00:00-04:00,16:00-24:00; Sa,Su 00:00-04:00,18:00-04:00"/>
    <tag k="phone" v="+43 1 7123212"/>
    <tag k="website" v="http://www.gossip.at/"/>
    <tag k="wheelchair" v="no"/>
  </node>
  <node id="956080380" lat="48.2020985" lon="16.3831443">
    <tag k="addr:city" v="Wien"/>
    <tag k="addr:country" v="AT"/>
    <tag k="addr:housenumber" v="21"/>
    <tag k="addr:postcode" v="1030"/>
    <tag k="addr:street" v="Beatrixgasse"/>
    <tag k="amenity" v="pub"/>
    <tag k="check_date" v="2022-09-10"/>
    <tag k="name" v="Cafe Bar Old Splendor"/>
    <tag k="opening_hours" v="Mo-Fr 11:00-23:00"/>
    <tag k="phone" v="+43 699 17136323"/>
    <tag k="website" v="http://www.cafe-oldsplendor.at/"/>
  </node>
  <node id="974112051" lat="48.2019828" lon="16.3961285">
    <tag k="addr:city" v="Wien"/>
    <tag k="addr:country" v="AT"/>
    <tag k="addr:housenumber" v="27"/>
    <tag k="addr:postcode" v="1030"/>
    <tag k="addr:street" v="Erdbergstraße"/>
    <tag k="amenity" v="pub"/>
    <tag k="indoor_seating" v="yes"/>
    <tag k="name" v="The Golden Harp"/>
    <tag k="opening_hours" v="Mo-Fr 09:00-02:00; Sa 10:00-02:00; Su 10:00-24:00"/>
    <tag k="outdoor_seating" v="parklet"/>
    <tag k="phone" v="+42 (0)1 / 715 13 93"/>
    <tag k="toilets:wheelchair" v="no"/>
    <tag k="website" v="https://goldenharp.at/"/>
    <tag k="wheelchair" v="limited"/>
  </node>
  <node id="982838162" lat="48.2087758" lon="16.3522877">
    <tag k="addr:housenumber" v="29"/>
    <tag k="addr:street" v="Lange Gasse"/>
    <tag k="amenity" v="pub"/>
    <tag k="email" v="lange_franz@hotmail.com"/>
    <tag k="internet_access" v="wlan"/>
    <tag k="microbrewery" v="no"/>
    <tag k="name" v="Das Lange"/>
    <tag k="opening_hours" v="Mo-Sa 18:00-02:00; Su 18:00-24:00"/>
    <tag k="phone" v="+43 1 4085141"/>
    <tag k="smoking" v="yes"/>
    <tag k="website" v="https://daslange.at/"/>
  </node>
  <node id="991972892" lat="48.2112710" lon="16.3872469">
    <tag k="addr:city" v="Wien"/>
    <tag k="addr:country" v="AT"/>
    <tag k="addr:housenumber" v="3"/>
    <tag k="addr:postcode" v="1030"/>
    <tag k="addr:street" v="Radetzkystraße"/>
    <tag k="amenity" v="pub"/>
    <tag k="name" v="The Church"/>
  </node>
  <node id="1068145208" lat="48.2040181" lon="16.3543549">
    <tag k="addr:city" v="Wien"/>
    <tag k="addr:country" v="AT"/>
    <tag k="addr:housenumber" v="23"/>
    <tag k="addr:postcode" v="1070"/>
    <tag k="addr:street" v="Burggasse"/>
    <tag k="amenity" v="pub"/>
    <tag k="condition" v="good"/>
    <tag k="contact:phone" v="+43-699 1154 1577"/>
    <tag k="contact:website" v="http://www.seven-bar.at/"/>
    <tag k="indoor_seating" v="yes"/>
    <tag k="name" v="Seven Bar"/>
    <tag k="opening_hours" v="Tu,We 18:00-02:00; Th-Sa 18:00-04:00"/>
    <tag k="outdoor_seating" v="yes"/>
    <tag k="toilets:wheelchair" v="no"/>
    <tag k="wheelchair" v="no"/>
  </node>
  <node id="1145179280" lat="48.2034538" lon="16.3488676">
    <tag k="addr:city" v="Wien"/>
    <tag k="addr:country" v="AT"/>
    <tag k="addr:housenumber" v="57"/>
    <tag k="addr:postcode" v="1070"/>
    <tag k="addr:street" v="Neubaugasse"/>
    <tag k="amenity" v="pub"/>
    <tag k="email" v="das.biero@gmx.at"/>
    <tag k="indoor_seating" v="yes"/>
    <tag k="name" v="DAS Biero"/>
    <tag k="opening_hours" v="Mo-Fr 16:00-02:00; Sa-Su 18:00-02:00"/>
    <tag k="outdoor_seating" v="no"/>
    <tag k="phone" v="015227418"/>
    <tag k="smoking" v="yes"/>
    <tag k="website" v="https://www.facebook.com/DasBiero/"/>
    <tag k="wheelchair" v="limited"/>
  </node>
  <node id="1193859571" lat="48.2134073" lon="16.3497987">
    <tag k="addr:city" v="Wien"/>
    <tag k="addr:country" v="AT"/>
    <tag k="addr:housenumber" v="22"/>
    <tag k="addr:postcode" v="1080"/>
    <tag k="addr:street" v="Laudongasse"/>
    <tag k="amenity" v="pub"/>
    <tag k="name" v="Brot und Spiele"/>
    <tag k="opening_hours" v="Mo-Su 18:00-02:00; Jul-Aug: Mo-Su 19:00-02:00"/>
    <tag k="sport" v="table_soccer"/>
    <tag k="website" v="http://www.brot-spiele.co.at/"/>
    <tag k="wheelchair" v="no"/>
  </node>
  <node id="1209065582" lat="48.2377757" lon="16.3868620">
    <tag k="amenity" v="pub"/>
    <tag k="microbrewery" v="no"/>
    <tag k="name" v="Allerheiligen Stüberl"/>
  </node>
  <node id="1209399849" lat="48.1517145" lon="16.2662165">
    <tag k="addr:city" v="Wien"/>
    <tag k="addr:country" v="AT"/>
    <tag k="addr:housenumber" v="106"/>
    <tag k="addr:postcode" v="1230"/>
    <tag k="addr:street" v="Endresstraße"/>
    <tag k="amenity" v="pub"/>
    <tag k="name" v="Schabernak"/>
    <tag k="website" v="http://www.schabernak.at/"/>
    <tag k="wheelchair" v="no"/>
    <tag k="wifi" v="no"/>
  </node>
  <node id="1210661838" lat="48.2171929" lon="16.3761477">
    <tag k="addr:city" v="Wien"/>
    <tag k="addr:country" v="AT"/>
    <tag k="addr:housenumber" v="1"/>
    <tag k="addr:postcode" v="1020"/>
    <tag k="addr:street" v="Im Werd"/>
    <tag k="amenity" v="pub"/>
    <tag k="contact:website" v="http://www.o-ooh.com/imwerd/"/>
    <tag k="name" v="Im Werd 1"/>
    <tag k="smoking" v="yes"/>
    <tag k="toilets:wheelchair" v="yes"/>
    <tag k="wheelchair" v="limited"/>
  </node>
  <node id="1216175877" lat="48.2130506" lon="16.3406915">
    <tag k="addr:city" v="Wien"/>
    <tag k="addr:country" v="AT"/>
    <tag k="addr:housenumber" v="71"/>
    <tag k="addr:postcode" v="1080"/>
    <tag k="addr:street" v="Laudongasse"/>
    <tag k="amenity" v="pub"/>
    <tag k="name" v="Espresso MMM"/>
  </node>
  <node id="1300145999" lat="48.2198156" lon="16.4051199">
    <tag k="addr:city" v="Wien"/>
    <tag k="addr:country" v="AT"/>
    <tag k="addr:housenumber" v="5"/>
    <tag k="addr:postcode" v="1020"/>
    <tag k="addr:street" v="Ilgplatz"/>
    <tag k="amenity" v="pub"/>
    <tag k="brewery" v="yes"/>
    <tag k="contact:facebook" v="https://www.facebook.com/dEZENTRAl/"/>
    <tag k="name" v="dEZENTRAl"/>
    <tag k="smoking" v="no"/>
    <tag k="wheelchair" v="yes"/>
  </node>
  <node id="1307579567" lat="48.1980368" lon="16.3632531">
    <tag k="addr:city" v="Wien"/>
    <tag k="addr:country" v="AT"/>
    <tag k="addr:housenumber" v="21"/>
    <tag k="addr:postcode" v="1040"/>
    <tag k="addr:street" v="Rechte Wienzeile"/>
    <tag k="amenity" v="pub"/>
    <tag k="contact:email" v="wien.naschmarkt@vytopna.com"/>
    <tag k="contact:phone" v="+43 676 3958944"/>
    <tag k="contact:website" v="http://www.vytopna.cz"/>
    <tag k="indoor_seating" v="yes"/>
    <tag k="name" v="Výtopna"/>
    <tag k="opening_hours" v="Mo-Su 11:00-24:00"/>
    <tag k="outdoor_seating" v="yes"/>
    <tag k="url" v="https://www.vytopna.cz/de/branch/wien-naschmarkt/about-branch"/>
  </node>
  <node id="1336944983" lat="48.2160978" lon="16.4895226">
    <tag k="amenity" v="pub"/>
    <tag k="name" v="Tinas Beisl"/>
    <tag k="wheelchair" v="no"/>
    <tag k="wheelchair:description" v="Stufen am Eingang, aber man hilft gerne um in das Lokal zu kommen, keine Behindertentoiletten"/>
  </node>
  <node id="1362753598" lat="48.1888924" lon="16.4000846">
    <tag k="addr:city" v="Wien"/>
    <tag k="addr:country" v="AT"/>
    <tag k="addr:housenumber" v="95"/>
    <tag k="addr:postcode" v="1030"/>
    <tag k="addr:street" v="Rennweg"/>
    <tag k="amenity" v="pub"/>
    <tag k="name" v="O’Connor’s Old Oak Irish Pub"/>
    <tag k="opening_hours" v="Mo-Fr 10:30-01:00; Sa 13:00-01:00; Su 13:00-22:00"/>
    <tag k="phone" v="+43 1 236 6721"/>
    <tag k="website" v="https://theoak1030.at/"/>
    <tag k="wheelchair" v="no"/>
  </node>
  <node id="1363142293" lat="48.1367485" lon="16.2801832">
    <tag k="addr:city" v="Wien"/>
    <tag k="addr:country" v="AT"/>
    <tag k="addr:housenumber" v="370"/>
    <tag k="addr:postcode" v="1230"/>
    <tag k="addr:street" v="Breitenfurter Straße"/>
    <tag k="amenity" v="pub"/>
    <tag k="fixme" v="Öffnungszeiten: Überhang +1 Stunde nach Feiertag (PH)"/>
    <tag k="name" v="Köö Billardcafe"/>
    <tag k="opening_hours" v="Mo-Th 09:00-24:00, Fr 09:00-01:00, Sa 15:00-01:00, PH,Su 14:00-22:00"/>
    <tag k="sport" v="billiards"/>
    <tag k="website" v="http://www.billardcafe.at/de/lokale/1230-breitenfurter-strasse.html"/>
    <tag k="wheelchair" v="yes"/>
  </node>
  <node id="1363150691" lat="48.2342786" lon="16.3232806">
    <tag k="addr:city" v="Wien"/>
    <tag k="addr:country" v="AT"/>
    <tag k="addr:housenumber" v="20"/>
    <tag k="addr:postcode" v="1180"/>
    <tag k="addr:street" v="Bastiengasse"/>
    <tag k="amenity" v="pub"/>
    <tag k="name" v="Bastille-Pub"/>
    <tag k="opening_hours" v="Mo-SA 18:00-01:00"/>
    <tag k="phone" v="+43 1 9448135"/>
    <tag k="sport" v="table_soccer"/>
    <tag k="website" v="http://www.bastille-pub.at/"/>
    <tag k="wheelchair" v="no"/>
  </node>
  <node id="1366488393" lat="48.2330272" lon="16.3542041">
    <tag k="addr:city" v="Wien"/>
    <tag k="addr:country" v="AT"/>
    <tag k="addr:housenumber" v="5"/>
    <tag k="addr:postcode" v="1190"/>
    <tag k="addr:street" v="Döblinger Gürtel"/>
    <tag k="amenity" v="pub"/>
    <tag k="brewery" v="Ottakringer;Rotes Zwickl;Guiness;Strongbow;Wieselburger;Schneider Weisse;Budweiser;Null Komma Josef;Heineken;Desperados;Corona"/>
    <tag k="contact:facebook" v="https://www.facebook.com/UndersVienna/"/>
    <tag k="distillery" v="various"/>
    <tag k="drink:beer" v="served"/>
    <tag k="drink:beer:Budweiser" v="bottled"/>
    <tag k="drink:beer:Corona" v="bottled"/>
    <tag k="drink:beer:Desperados" v="bottled"/>
    <tag k="drink:beer:Guinness" v="served"/>
    <tag k="drink:beer:Heineken" v="bottled"/>
    <tag k="drink:beer:Null_Komma_Josef" v="bottled"/>
    <tag k="drink:beer:Ottakringer" v="served"/>
    <tag k="drink:beer:Rotes_Zwickl" v="served"/>
    <tag k="drink:beer:Schneider_Weisse" v="bottled"/>
    <tag k="drink:beer:Strongbow" v="bottled"/>
    <tag k="drink:beer:Wieselburger" v="bottled"/>
    <tag k="drink:soft_drink" v="served"/>
    <tag k="drink:water" v="served"/>
    <tag k="drink:wine" v="served"/>
    <tag k="drinking_water" v="yes"/>
    <tag k="indoor_seating" v="yes"/>
    <tag k="internet_access" v="wlan"/>
    <tag k="name" v="Unders"/>
    <tag k="old_name" v="London Club"/>
    <tag k="opening_hours" v="Mo-Sa 18:00-02:00"/>
    <tag k="outdoor_seating" v="yes"/>
    <tag k="payment:cash" v="yes"/>
    <tag k="payment:maestro" v="yes"/>
    <tag k="payment:mastercard" v="yes"/>
    <tag k="payment:visa" v="yes"/>
    <tag k="website" v="http://www.unders.at/"/>
    <tag k="wheelchair" v="no"/>
  </node>
  <node id="1370932236" lat="48.1977366" lon="16.3620316">
    <tag k="addr:city" v="Wien"/>
    <tag k="addr:country" v="AT"/>
    <tag k="addr:housenumber" v="487-505"/>
    <tag k="addr:postcode" v="1060"/>
    <tag k="addr:street" v="Naschmarkt"/>
    <tag k="amenity" v="pub"/>
    <tag k="cuisine" v="kebab;oriental"/>
    <tag k="name" v="Papas"/>
    <tag k="opening_hours" v="Mo-Fr 06:00-22:00; Sa 06:00-21:00"/>
    <tag k="phone" v="+4315874651"/>
    <tag k="toilets:wheelchair" v="yes"/>
    <tag k="wheelchair" v="yes"/>
  </node>
  <node id="1438259632" lat="48.2415700" lon="16.3340269">
    <tag k="addr:city" v="Wien"/>
    <tag k="addr:country" v="AT"/>
    <tag k="addr:housenumber" v="9"/>
    <tag k="addr:postcode" v="1190"/>
    <tag k="addr:street" v="Rodlergasse"/>
    <tag k="amenity" v="pub"/>
    <tag k="brewery" v="various"/>
    <tag k="coffee" v="yes"/>
    <tag k="food" v="yes"/>
    <tag k="name" v="Beisl &quot;Zur Gruam&quot;"/>
    <tag k="operator" v="Christoph Jung"/>
    <tag k="outdoor_seating" v="yes"/>
    <tag k="winery" v="yes"/>
  </node>
  <node id="1439076633" lat="48.1939730" lon="16.3616053">
    <tag k="addr:city" v="Wien"/>
    <tag k="addr:country" v="AT"/>
    <tag k="addr:housenumber" v="56"/>
    <tag k="addr:postcode" v="1050"/>
    <tag k="addr:street" v="Margaretenstraße"/>
    <tag k="amenity" v="pub"/>
    <tag k="indoor_seating" v="yes"/>
    <tag k="name" v="Manuela's Pub"/>
    <tag k="opening_hours" v="Mo-Sa 10:00-02:00; Su,PH 17:00-02:00"/>
    <tag k="outdoor_seating" v="no"/>
    <tag k="wheelchair" v="no"/>
  </node>
  <node id="1467083848" lat="48.2071616" lon="16.3904424">
    <tag k="addr:city" v="Wien"/>
    <tag k="addr:country" v="AT"/>
    <tag k="addr:housenumber" v="17"/>
    <tag k="addr:postcode" v="1030"/>
    <tag k="addr:street" v="Seidlgasse"/>
    <tag k="amenity" v="pub"/>
    <tag k="name" v="Cadillac"/>
    <tag k="opening_hours" v="PH,Mo-Sa 18:00-02:00"/>
    <tag k="wheelchair" v="no"/>
  </node>
  <node id="1467140712" lat="48.2276059" lon="16.3707138">
    <tag k="amenity" v="pub"/>
    <tag k="contact:facebook" v="https://www.facebook.com/BLANCOLoungeCafeBar/"/>
    <tag k="cuisine" v="regional"/>
    <tag k="name" v="Cafe Blanco"/>
  </node>
  <node id="1467161749" lat="48.1929763" lon="16.3313170">
    <tag k="amenity" v="pub"/>
    <tag k="name" v="Dolce Vita"/>
  </node>
  <node id="1467235328" lat="48.2248497" lon="16.3618472">
    <tag k="amenity" v="pub"/>
    <tag k="indoor_seating" v="yes"/>
    <tag k="name" v="Cafe Mary"/>
    <tag k="opening_hours" v="Mo-Fr 11:00-22:00; Sa-Su 14:00-22:00; PH 14:00-22:00"/>
    <tag k="outdoor_seating" v="sidewalk"/>
    <tag k="wheelchair" v="no"/>
  </node>
  <node id="1468865963" lat="48.1405982" lon="16.4769949">
    <tag k="amenity" v="pub"/>
    <tag k="name" v="Heisinger"/>
  </node>
  <node id="1530271340" lat="48.1926008" lon="16.3377163">
    <tag k="addr:city" v="Wien"/>
    <tag k="addr:country" v="AT"/>
    <tag k="addr:housenumber" v="21"/>
    <tag k="addr:postcode" v="1150"/>
    <tag k="addr:street" v="Mariahilfer Gürtel"/>
    <tag k="alt_name" v="Travel Shack Vienna"/>
    <tag k="amenity" v="pub"/>
    <tag k="name" v="Travelshack Vienna"/>
    <tag k="opening_hours" v="Mo-Su 18:00-04:00"/>
    <tag k="source" v="web page of travelshack"/>
    <tag k="sport" v="table_soccer"/>
    <tag k="website" v="http://www.travelshackvienna.com/"/>
    <tag k="wifi" v="free"/>
  </node>
  <node id="1539804821" lat="48.2437424" lon="16.4550847">
    <tag k="addr:city" v="Wien"/>
    <tag k="addr:country" v="AT"/>
    <tag k="addr:postcode" v="1220"/>
    <tag k="amenity" v="pub"/>
    <tag k="name" v="Haltestelle"/>
  </node>
  <node id="1541917301" lat="48.2022202" lon="16.3537978">
    <tag k="addr:city" v="Wien"/>
    <tag k="addr:country" v="AT"/>
    <tag k="addr:housenumber" v="17"/>
    <tag k="addr:postcode" v="1070"/>
    <tag k="addr:street" v="Siebensterngasse"/>
    <tag k="amenity" v="pub"/>
    <tag k="name" v="Steirisch Pub"/>
    <tag k="opening_hours" v="Mo-Fr 16:00-01:00, Sa,Su,PH 19:00-03:00"/>
    <tag k="toilets:wheelchair" v="no"/>
    <tag k="wheelchair" v="no"/>
  </node>
  <node id="1590144633" lat="48.2023520" lon="16.3073467">
    <tag k="addr:city" v="Wien"/>
    <tag k="addr:country" v="AT"/>
    <tag k="addr:housenumber" v="1"/>
    <tag k="addr:postcode" v="1140"/>
    <tag k="addr:street" v="Huttengasse"/>
    <tag k="amenity" v="pub"/>
    <tag k="amenity_1" v="restaurant"/>
    <tag k="biergarten" v="yes"/>
    <tag k="cuisine" v="regional"/>
    <tag k="drink:beer" v="draught"/>
    <tag k="food" v="yes"/>
    <tag k="name" v="Biergartl"/>
    <tag k="old_name" v="Martins Biergartl Bräu"/>
    <tag k="opening_hours" v="Mo-Fr 11:00-23:00+; Sa,Su off; PH off"/>
    <tag k="outdoor_seating" v="yes"/>
    <tag k="phone" v="+43 1 9854770"/>
    <tag k="real_ale" v="yes"/>
    <tag k="smoking" v="isolated"/>
    <tag k="toilets:wheelchair" v="no"/>
    <tag k="website" v="https://fb.com/biergartl/"/>
    <tag k="wheelchair" v="no"/>
  </node>
  <node id="1591079389" lat="48.1988419" lon="16.3578298">
    <tag k="amenity" v="pub"/>
    <tag k="name" v="Lebenam Hirh Pub"/>
  </node>
  <node id="1591079504" lat="48.1981588" lon="16.3557877">
    <tag k="addr:city" v="Wien"/>
    <tag k="addr:country" v="AT"/>
    <tag k="addr:housenumber" v="50"/>
    <tag k="addr:postcode" v="1060"/>
    <tag k="addr:street" v="Gumpendorfer Straße"/>
    <tag k="amenity" v="pub"/>
    <tag k="cuisine" v="irish"/>
    <tag k="indoor_seating" v="yes"/>
    <tag k="name" v="Wind &amp; Mill's"/>
    <tag k="opening_hours" v="Mo-Sa 16:00-02:00"/>
    <tag k="outdoor_seating" v="no"/>
    <tag k="website" v="https://www.windmills.at/"/>
  </node>
  <node id="1600450972" lat="48.1906345" lon="16.3968403">
    <tag k="addr:city" v="Wien"/>
    <tag k="addr:country" v="AT"/>
    <tag k="addr:housenumber" v="86"/>
    <tag k="addr:postcode" v="1030"/>
    <tag k="addr:street" v="Rennweg"/>
    <tag k="amenity" v="pub"/>
    <tag k="name" v="Café &amp; Pub Rennweg"/>
    <tag k="opening_hours" v="Mo-Sa 07:00-02:00"/>
    <tag k="phone" v="+43 660 3904050"/>
    <tag k="website" v="https://www.facebook.com/cafepubrennweg/"/>
    <tag k="wheelchair" v="no"/>
  </node>
  <node id="1630381889" lat="48.1947334" lon="16.3608191">
    <tag k="addr:city" v="Wien"/>
    <tag k="addr:country" v="AT"/>
    <tag k="addr:housenumber" v="7"/>
    <tag k="addr:postcode" v="1050"/>
    <tag k="addr:street" v="Kettenbrückengasse"/>
    <tag k="amenity" v="pub"/>
    <tag k="name" v="The Black Sheep"/>
    <tag k="opening_hours" v="Mo-Th 16:00-01:00, Fr,Sa 16:00-02:00, Su 16:00-22:00"/>
    <tag k="phone" v="+43 660 4739157"/>
    <tag k="theme" v="irish"/>
    <tag k="website" v="https://theblacksheep.at/"/>
    <tag k="wheelchair" v="no"/>
  </node>
  <node id="1631228602" lat="48.1499820" lon="16.3829823">
    <tag k="amenity" v="pub"/>
    <tag k="name" v="Peterwirt"/>
    <tag k="opening_hours" v="Mo-Th 16:00-24:00, Fr 10:30-24:00"/>
  </node>
  <node id="1640437064" lat="48.2094749" lon="16.3775515">
    <tag k="addr:city" v="Wien"/>
    <tag k="addr:country" v="AT"/>
    <tag k="addr:housenumber" v="8"/>
    <tag k="addr:postcode" v="1010"/>
    <tag k="addr:street" v="Schönlaterngasse"/>
    <tag k="amenity" v="pub"/>
    <tag k="name" v="Wunderbar"/>
    <tag k="source" v="http://www.restauranttester.at/wunderbar.html"/>
    <tag k="wheelchair" v="no"/>
  </node>
  <node id="1660747765" lat="48.2283873" lon="16.3721417">
    <tag k="addr:city" v="Wien"/>
    <tag k="addr:country" v="AT"/>
    <tag k="addr:housename" v="K.St.V Rhaetia"/>
    <tag k="addr:housenumber" v="22"/>
    <tag k="addr:postcode" v="1200"/>
    <tag k="addr:street" v="Petraschgasse"/>
    <tag k="amenity" v="pub"/>
    <tag k="designation" v="K.St.V. Rhaetia"/>
    <tag k="name" v="K.St.V. Rhaetia"/>
    <tag k="website" v="http://members.aon.at/rhaetia/"/>
    <tag k="wifi" v="free"/>
  </node>
  <node id="1660997102" lat="48.2125335" lon="16.3456392">
    <tag k="addr:city" v="Wien"/>
    <tag k="addr:country" v="AT"/>
    <tag k="addr:housenumber" v="46"/>
    <tag k="addr:postcode" v="1080"/>
    <tag k="addr:street" v="Florianigasse"/>
    <tag k="amenity" v="pub"/>
    <tag k="description" v="Irish Pub"/>
    <tag k="email" v="info@irishpubjosefstadt.at"/>
    <tag k="name" v="The Golden Harp"/>
    <tag k="opening_hours" v="10:00+"/>
    <tag k="phone" v="+43 1 4026 012"/>
    <tag k="website" v="http://www.irishpubjosefstadt.at/"/>
  </node>
  <node id="1677422681" lat="48.1926272" lon="16.3490151">
    <tag k="amenity" v="pub"/>
    <tag k="indoor_seating" v="yes"/>
    <tag k="name" v="Dublin"/>
    <tag k="opening_hours" v="Sa 17:00-02:00, Su 17:00-24:00, Mo-Th 16:00-01:00, Fr 16:00-02:00"/>
    <tag k="outdoor_seating" v="yes"/>
    <tag k="toilets:wheelchair" v="no"/>
    <tag k="wheelchair" v="limited"/>
  </node>
  <node id="1677422841" lat="48.1916117" lon="16.3473118">
    <tag k="amenity" v="pub"/>
    <tag k="indoor_seating" v="yes"/>
    <tag k="name" v="Raymonds"/>
    <tag k="opening_hours" v="We-Sa 16:00-23:00"/>
    <tag k="outdoor_seating" v="yes"/>
  </node>
  <node id="1691037884" lat="48.2215391" lon="16.3645077">
    <tag k="addr:city" v="Wien"/>
    <tag k="addr:country" v="AT"/>
    <tag k="addr:housenumber" v="19"/>
    <tag k="addr:postcode" v="1090"/>
    <tag k="addr:street" v="Servitengasse"/>
    <tag k="amenity" v="pub"/>
    <tag k="name" v="Cafe Toni"/>
  </node>
  <node id="1701621316" lat="48.2244284" lon="16.3657478">
    <tag k="amenity" v="pub"/>
    <tag k="name" v="Cafe Timi"/>
  </node>
  <node id="1707142906" lat="48.2247934" lon="16.3639750">
    <tag k="addr:city" v="Wien"/>
    <tag k="addr:country" v="AT"/>
    <tag k="addr:housenumber" v="15"/>
    <tag k="addr:postcode" v="1090"/>
    <tag k="addr:street" v="Glasergasse"/>
    <tag k="amenity" v="pub"/>
    <tag k="name" v="Casa Caribeña"/>
    <tag k="website" v="http://casacaribena.at/"/>
    <tag k="wheelchair" v="no"/>
  </node>
  <node id="1707143149" lat="48.2248706" lon="16.3642794">
    <tag k="amenity" v="pub"/>
    <tag k="name" v="blue dream"/>
  </node>
  <node id="1707194114" lat="48.2259592" lon="16.3641143">
    <tag k="addr:city" v="Wien"/>
    <tag k="addr:country" v="AT"/>
    <tag k="addr:housenumber" v="29"/>
    <tag k="addr:postcode" v="1090"/>
    <tag k="addr:street" v="Rögergasse"/>
    <tag k="amenity" v="pub"/>
    <tag k="name" v="Klub Gru"/>
    <tag k="sport" v="table_soccer; darts"/>
    <tag k="sustenance" v="pub"/>
    <tag k="website" v="http://gruklub.at/"/>
  </node>
  <node id="1708782898" lat="48.2175660" lon="16.3619202">
    <tag k="amenity" v="pub"/>
    <tag k="name" v="Amananths Place"/>
    <tag k="opening_hours" v="Fr-Sa 19:00-04:00"/>
    <tag k="operator" v="Georg Mandowski"/>
    <tag k="phone" v="+43 664 1003392"/>
    <tag k="sport" v="table_soccer"/>
    <tag k="website" v="http://www.amananths-place.com/"/>
    <tag k="wheelchair" v="no"/>
  </node>
  <node id="1709195189" lat="48.1870211" lon="16.3689080">
    <tag k="addr:city" v="Wien"/>
    <tag k="addr:country" v="AT"/>
    <tag k="addr:housenumber" v="35"/>
    <tag k="addr:postcode" v="1040"/>
    <tag k="addr:street" v="Johann-Strauß-Gasse"/>
    <tag k="amenity" v="pub"/>
    <tag k="description" v="Vereinslokal Harry's Dart Club"/>
    <tag k="level" v="0"/>
    <tag k="name" v="Cafe &amp; Spiel"/>
    <tag k="opening_hours" v="Th-Sa 18:00-02:00"/>
    <tag k="outdoor_seating" v="no"/>
    <tag k="phone" v="+43 699 17271626"/>
    <tag k="website" v="https://www.facebook.com/CafeundSpiel"/>
    <tag k="wheelchair" v="no"/>
  </node>
  <node id="1717868121" lat="48.2075389" lon="16.3372619">
    <tag k="addr:housenumber" v="29"/>
    <tag k="addr:postcode" v="1160"/>
    <tag k="addr:street" v="Lerchenfelder Gürtel"/>
    <tag k="amenity" v="pub"/>
    <tag k="cuisine" v="burger;turkish"/>
    <tag k="email" v="info@derwisch.wien"/>
    <tag k="name" v="Derwisch"/>
    <tag k="opening_hours" v="Su-Th 14:00-02:00; Fr-Sa 14:00-04:00"/>
    <tag k="phone" v="+43 19563677"/>
    <tag k="website" v="http://derwisch.wien"/>
  </node>
  <node id="1740259398" lat="48.2092333" lon="16.3918233">
    <tag k="amenity" v="pub"/>
    <tag k="name" v="All-In"/>
    <tag k="opening_hours" v="Mo,Tu 10:00-17:00; We-Fr 10:00-22:00; Sa 14:00-22:00"/>
    <tag k="wheelchair" v="no"/>
  </node>
  <node id="1744229465" lat="48.1845364" lon="16.3294303">
    <tag k="addr:city" v="Wien"/>
    <tag k="addr:country" v="AT"/>
    <tag k="addr:housenumber" v="50"/>
    <tag k="addr:postcode" v="1150"/>
    <tag k="addr:street" v="Diefenbachgasse"/>
    <tag k="amenity" v="pub"/>
    <tag k="biergarten" v="yes"/>
    <tag k="cuisine" v="regional"/>
    <tag k="name" v="Hopfen-Stuben"/>
    <tag k="opening_hours" v="Mo-Th 16:00-24:00;Fr 12:00-24:00;Sa 18:00-24:00"/>
    <tag k="phone" v="+43 664 3727443"/>
    <tag k="website" v="http://www.hopfenstuben.at/"/>
  </node>
  <node id="1776090872" lat="48.2010991" lon="16.3269602">
    <tag k="amenity" v="pub"/>
    <tag k="name" v="Brauhund"/>
    <tag k="website" v="https://www.facebook.com/brauhundbar"/>
  </node>
  <node id="1779797906" lat="48.1920539" lon="16.3588319">
    <tag k="addr:city" v="Wien"/>
    <tag k="addr:country" v="AT"/>
    <tag k="addr:housenumber" v="9"/>
    <tag k="addr:postcode" v="1050"/>
    <tag k="addr:street" v="Margaretenplatz"/>
    <tag k="amenity" v="pub"/>
    <tag k="name" v="Bierometer 2"/>
    <tag k="opening_hours" v="08:00-01:00"/>
    <tag k="phone" v="+4319557933"/>
    <tag k="website" v="http://www.bierometer-2.at/"/>
    <tag k="wheelchair" v="no"/>
  </node>
  <node id="1784800698" lat="48.2163388" lon="16.3435509">
    <tag k="addr:city" v="Wien"/>
    <tag k="addr:country" v="AT"/>
    <tag k="addr:housenumber" v="9"/>
    <tag k="addr:postcode" v="1090"/>
    <tag k="addr:street" v="Hebragasse"/>
    <tag k="amenity" v="pub"/>
    <tag k="indoor_seating" v="yes"/>
    <tag k="name" v="Speak Easy"/>
    <tag k="opening_hours" v="Mo-Fr 09:00-01:00"/>
    <tag k="outdoor_seating" v="yes"/>
    <tag k="phone" v="+43 650 7713751"/>
    <tag k="source" v="survey"/>
    <tag k="website" v="https://www.pub-speakeasy.at/"/>
    <tag k="wheelchair" v="no"/>
    <tag k="wifi" v="no"/>
  </node>
  <node id="1787153982" lat="48.1804930" lon="16.3767939">
    <tag k="amenity" v="pub"/>
    <tag k="name" v="Bierox"/>
    <tag k="opening_hours" v="Mo-Sa 18:00-24:00; Su off"/>
    <tag k="wheelchair" v="no"/>
    <tag k="wifi" v="no"/>
  </node>
  <node id="1841533958" lat="48.2140152" lon="16.3361228">
    <tag k="addr:city" v="Wien"/>
    <tag k="addr:country" v="AT"/>
    <tag k="addr:housenumber" v="14"/>
    <tag k="addr:postcode" v="1160"/>
    <tag k="addr:street" v="Payergasse"/>
    <tag k="alt_name" v="Club International"/>
    <tag k="amenity" v="pub"/>
    <tag k="email" v="office@ci.or.at"/>
    <tag k="level" v="0"/>
    <tag k="name" v="Cafe C.I."/>
    <tag k="opening_hours" v="Mo-Sa 08:00-02:00; Su 10:00-02:00"/>
    <tag k="outdoor_seating" v="yes"/>
    <tag k="phone" v="+43 1 4031827"/>
    <tag k="smoking" v="yes"/>
    <tag k="website" v="http://www.ci.or.at/"/>
    <tag k="wheelchair" v="yes"/>
  </node>
  <node id="1841540786" lat="48.2138469" lon="16.3361351">
    <tag k="addr:city" v="Wien"/>
    <tag k="addr:housenumber" v="169"/>
    <tag k="addr:postcode" v="1160"/>
    <tag k="addr:street" v="Brunnenmarkt Stand"/>
    <tag k="amenity" v="pub"/>
    <tag k="name" v="ANDO"/>
    <tag k="toilets:wheelchair" v="no"/>
    <tag k="website" v="http://www.ando.at/"/>
    <tag k="wheelchair" v="limited"/>
  </node>
  <node id="1894565012" lat="48.1833221" lon="16.3311239">
    <tag k="amenity" v="pub"/>
    <tag k="name" v="Strasser Bräu"/>
    <tag k="opening_hours" v="Mo-Fr 11:30-23:00"/>
    <tag k="website" v="http://www.strasserbraeu.at/"/>
    <tag k="wheelchair" v="no"/>
  </node>
  <node id="1903094531" lat="48.1687893" lon="16.3794951">
    <tag k="addr:city" v="Wien"/>
    <tag k="addr:country" v="AT"/>
    <tag k="addr:housenumber" v="16-20"/>
    <tag k="addr:postcode" v="1100"/>
    <tag k="addr:street" v="Rechberggasse"/>
    <tag k="amenity" v="pub"/>
    <tag k="name" v="Servus Du"/>
    <tag k="wheelchair" v="no"/>
  </node>
  <node id="1903909191" lat="48.2020085" lon="16.3514354">
    <tag k="addr:city" v="Wien"/>
    <tag k="addr:country" v="AT"/>
    <tag k="addr:housenumber" v="31"/>
    <tag k="addr:postcode" v="1070"/>
    <tag k="addr:street" v="Siebensterngasse"/>
    <tag k="alt_name" v="Café Siebenstern"/>
    <tag k="amenity" v="pub"/>
    <tag k="condition" v="good"/>
    <tag k="diet:vegan" v="yes"/>
    <tag k="diet:vegetarian" v="yes"/>
    <tag k="name" v="Café 7*stern"/>
    <tag k="opening_hours" v="Mo-Th, Su 10:00-23:00; Fr, Sa 10:00-00:00"/>
    <tag k="outdoor_seating" v="yes"/>
    <tag k="smoking" v="isolated"/>
    <tag k="toilets:wheelchair" v="yes"/>
    <tag k="website" v="https://www.7stern.net/"/>
    <tag k="wheelchair" v="limited"/>
  </node>
  <node id="1936025717" lat="48.2018637" lon="16.3897135">
    <tag k="addr:city" v="Wien"/>
    <tag k="addr:country" v="AT"/>
    <tag k="addr:housenumber" v="1"/>
    <tag k="addr:postcode" v="1030"/>
    <tag k="addr:street" v="Sechskrügelgasse"/>
    <tag k="amenity" v="pub"/>
    <tag k="name" v="Stammkaffee"/>
    <tag k="opening_hours" v="Mo-Su 17:00-02:00"/>
    <tag k="phone" v="+43 1 7145145"/>
    <tag k="sport" v="table_soccer"/>
    <tag k="toilets:wheelchair" v="no"/>
    <tag k="website" v="http://www.stammkaffee.com/"/>
    <tag k="wheelchair" v="limited"/>
  </node>
  <node id="1965010055" lat="48.1758077" lon="16.3786847">
    <tag k="addr:city" v="Wien"/>
    <tag k="addr:country" v="AT"/>
    <tag k="addr:housenumber" v="14"/>
    <tag k="addr:postcode" v="1100"/>
    <tag k="addr:street" v="Wielandgasse"/>
    <tag k="amenity" v="pub"/>
    <tag k="at_bev:addr_date" v="2017-10-01"/>
    <tag k="name" v="Bier-Beisl"/>
    <tag k="wifi" v="no"/>
  </node>
  <node id="1970228875" lat="48.2548648" lon="16.3567930">
    <tag k="amenity" v="pub"/>
    <tag k="name" v="Heuriger Muth"/>
    <tag k="phone" v="+43 1 370 76 66"/>
    <tag k="website" v="https://www.muth.at/"/>
  </node>
  <node id="1993134070" lat="48.1927013" lon="16.3608840">
    <tag k="addr:city" v="Wien"/>
    <tag k="addr:country" v="AT"/>
    <tag k="addr:housenumber" v="61"/>
    <tag k="addr:postcode" v="1050"/>
    <tag k="addr:street" v="Margaretenstraße"/>
    <tag k="amenity" v="pub"/>
    <tag k="email" v="info@pubklemo.at"/>
    <tag k="indoor_seating" v="yes"/>
    <tag k="level" v="0"/>
    <tag k="name" v="Pub Klemo"/>
    <tag k="opening_hours" v="Sep-Jun Mo-Sa 17:00+; Jul-Aug Mo-Fr 17:00+"/>
    <tag k="outdoor_seating" v="no"/>
    <tag k="phone" v="+43 699 11091332"/>
    <tag k="smoking" v="yes"/>
    <tag k="smoking_hours" v="22:00+"/>
    <tag k="website" v="http://www.pubklemo.at/"/>
    <tag k="wheelchair" v="no"/>
  </node>
  <node id="2054759016" lat="48.1975989" lon="16.2792505">
    <tag k="addr:city" v="Wien"/>
    <tag k="addr:country" v="AT"/>
    <tag k="addr:housenumber" v="299"/>
    <tag k="addr:postcode" v="1140"/>
    <tag k="addr:street" v="Hütteldorfer Straße"/>
    <tag k="amenity" v="pub"/>
    <tag k="brewery" v="Guinness"/>
    <tag k="name" v="The Twinspub"/>
    <tag k="opening_hours" v="Mo-Su 16:00-02:00"/>
    <tag k="outdoor_seating" v="no"/>
    <tag k="wheelchair" v="limited"/>
  </node>
  <node id="2068070718" lat="48.2620309" lon="16.3324685">
    <tag k="addr:city" v="Wien"/>
    <tag k="addr:country" v="AT"/>
    <tag k="addr:housenumber" v="102"/>
    <tag k="addr:postcode" v="1190"/>
    <tag k="addr:street" v="Cobenzlgasse"/>
    <tag k="amenity" v="pub"/>
    <tag k="name" v="Heuriger Obermann"/>
    <tag k="phone" v="+43-664 451 9927"/>
    <tag k="website" v="https://www.weinbauobermann.at/"/>
  </node>
  <node id="2086495846" lat="48.2079912" lon="16.3086154">
    <tag k="amenity" v="pub"/>
    <tag k="name" v="The Black Pearl"/>
  </node>
  <node id="2096231629" lat="48.1915563" lon="16.2736794">
    <tag k="addr:city" v="Wien"/>
    <tag k="addr:country" v="AT"/>
    <tag k="addr:housenumber" v="31"/>
    <tag k="addr:postcode" v="1130"/>
    <tag k="addr:street" v="Testarellogasse"/>
    <tag k="amenity" v="pub"/>
    <tag k="name" v="What's up"/>
  </node>
  <node id="2107053284" lat="48.2109421" lon="16.3384909">
    <tag k="addr:city" v="Wien"/>
    <tag k="addr:country" v="AT"/>
    <tag k="addr:housenumber" v="53"/>
    <tag k="addr:postcode" v="1160"/>
    <tag k="addr:street" v="Lerchenfelder Gürtel"/>
    <tag k="alt_name" v="Wintergarten"/>
    <tag k="amenity" v="pub"/>
    <tag k="contact:facebook" v="https://www.facebook.com/cafeconcerto/"/>
    <tag k="email" v="heinz.seidl@cafeconcerto.at"/>
    <tag k="int_name" v="Cafe Concerto"/>
    <tag k="internet_access" v="wlan"/>
    <tag k="internet_access:fee" v="no"/>
    <tag k="name" v="Cafe Concerto"/>
    <tag k="opening_hours" v="Tu-Sa 19:00-04:00 open; Fr-Sa 19:00-04:00 open &quot;DJ Party Dancefloor&quot; || Sa-Su 06:00+ open &quot;Afterhour&quot;"/>
    <tag k="operator" v="Heinz Seidl"/>
    <tag k="payment:cash" v="only"/>
    <tag k="phone" v="+43 1 4064795"/>
    <tag k="source" v="i know it.;website;facebook"/>
    <tag k="sport" v="table_soccer"/>
    <tag k="website" v="http://www.cafeconcerto.at/"/>
    <tag k="wheelchair" v="limited"/>
  </node>
  <node id="2166862527" lat="48.1865065" lon="16.3250701">
    <tag k="addr:city" v="Wien"/>
    <tag k="addr:country" v="AT"/>
    <tag k="addr:housenumber" v="100"/>
    <tag k="addr:postcode" v="1150"/>
    <tag k="addr:street" v="Sechshauser Straße"/>
    <tag k="amenity" v="pub"/>
    <tag k="name" v="Nostalgija Kafana &amp; Rakija Bar"/>
    <tag k="wheelchair" v="no"/>
  </node>
  <node id="2168595263" lat="48.2142416" lon="16.3417620">
    <tag k="addr:city" v="Wien"/>
    <tag k="addr:country" v="AT"/>
    <tag k="addr:housenumber" v="22"/>
    <tag k="addr:postcode" v="1080"/>
    <tag k="addr:street" v="Breitenfelder Gasse"/>
    <tag k="amenity" v="pub"/>
    <tag k="cuisine" v="mexican"/>
    <tag k="email" v="elfeo.wien@gmail.com"/>
    <tag k="internet_access" v="no"/>
    <tag k="name" v="Bierkanzlei"/>
    <tag k="name:de" v="Mezcalería El Feo"/>
    <tag k="name:en" v="Mezcalería El Feo"/>
    <tag k="opening_hours" v="We-Th 17:00-01:00; Fr-Sa 17:00-02:00"/>
    <tag k="source" v="http://www.bierkanzlei.com/lageplan.html"/>
    <tag k="website" v="http://www.elfeo.at/"/>
    <tag k="wifi" v="no"/>
  </node>
  <node id="2258175756" lat="48.2120306" lon="16.3699355">
    <tag k="addr:city" v="Wien"/>
    <tag k="addr:country" v="AT"/>
    <tag k="addr:housenumber" v="9"/>
    <tag k="addr:postcode" v="1010"/>
    <tag k="addr:street" v="Wipplingerstraße"/>
    <tag k="amenity" v="pub"/>
    <tag k="indoor_seating" v="yes"/>
    <tag k="name" v="Mel's Craft Beers &amp; Diner"/>
    <tag k="opening_hours" v="Mo-Su 16:00-02:00"/>
    <tag k="outdoor_seating" v="yes"/>
    <tag k="smoking" v="no"/>
    <tag k="website" v="https://paddysco.at/mels-craft-beers-diner/"/>
    <tag k="wheelchair" v="yes"/>
  </node>
  <node id="2313068140" lat="48.2119281" lon="16.3739731">
    <tag k="addr:city" v="Wien"/>
    <tag k="addr:country" v="AT"/>
    <tag k="addr:housenumber" v="11"/>
    <tag k="addr:postcode" v="1010"/>
    <tag k="addr:street" v="Judengasse"/>
    <tag k="amenity" v="pub"/>
    <tag k="check_date" v="2022-09-09"/>
    <tag k="indoor_seating" v="yes"/>
    <tag k="name" v="Philosoph"/>
    <tag k="outdoor_seating" v="yes"/>
    <tag k="website" v="http://www.philosoph1.at/"/>
    <tag k="wheelchair" v="limited"/>
    <tag k="wifi" v="no"/>
  </node>
  <node id="2336844415" lat="48.2148753" lon="16.3381164">
    <tag k="addr:city" v="Wien"/>
    <tag k="addr:country" v="AT"/>
    <tag k="addr:housenumber" v="19"/>
    <tag k="addr:postcode" v="1160"/>
    <tag k="addr:street" v="Ottakringer Straße"/>
    <tag k="amenity" v="pub"/>
    <tag k="name" v="Cafe Bonsai"/>
  </node>
  <node id="2352626076" lat="48.1959618" lon="16.4006344">
    <tag k="addr:city" v="Wien"/>
    <tag k="addr:country" v="AT"/>
    <tag k="addr:housenumber" v="9"/>
    <tag k="addr:postcode" v="1030"/>
    <tag k="addr:street" v="Rabengasse"/>
    <tag k="amenity" v="pub"/>
    <tag k="name" v="Raven's Pub"/>
    <tag k="opening_hours" v="Mo-Fr 09:00-24:00; Sa 10:00-24:00; PH,Su 10:00-22:00"/>
    <tag k="phone" v="01/712 23 26"/>
  </node>
  <node id="2357531632" lat="48.2139215" lon="16.3352641">
    <tag k="amenity" v="pub"/>
    <tag k="cuisine" v="georgian"/>
    <tag k="email" v="gogiokro@gmx.at"/>
    <tag k="name" v="Sachlink Dukani"/>
    <tag k="opening_hours" v="18:00-24:00"/>
    <tag k="operator" v="Giorgi Okropiridse"/>
    <tag k="phone" v="+43 699 11513368"/>
    <tag k="shop" v="alcohol"/>
    <tag k="tourism" v="gallery"/>
  </node>
  <node id="2391161680" lat="48.2769299" lon="16.4967574">
    <tag k="addr:city" v="Wien"/>
    <tag k="addr:country" v="AT"/>
    <tag k="addr:housenumber" v="11"/>
    <tag k="addr:postcode" v="1220"/>
    <tag k="addr:street" v="Süßenbrunner Platz"/>
    <tag k="amenity" v="pub"/>
    <tag k="contact:phone" v="+43 680 2461 016"/>
    <tag k="contact:website" v="http://www.flokal.at"/>
    <tag k="food" v="yes"/>
    <tag k="name" v="Flokal"/>
    <tag k="opening_hours" v="We-Fr 16:00-23:00; Sa 10:30-23:00; Su 10:30-22:00"/>
  </node>
  <node id="2428114552" lat="48.1774430" lon="16.3758519">
    <tag k="amenity" v="pub"/>
    <tag k="name" v="Sani"/>
  </node>
  <node id="2445796108" lat="48.1997839" lon="16.3526257">
    <tag k="addr:city" v="Wien"/>
    <tag k="addr:country" v="AT"/>
    <tag k="addr:housenumber" v="3"/>
    <tag k="addr:postcode" v="1070"/>
    <tag k="addr:street" v="Kirchengasse"/>
    <tag k="amenity" v="pub"/>
    <tag k="drink:beer" v="yes"/>
    <tag k="name" v="Shamrock Vienna"/>
    <tag k="opening_hours" v="Mo-Th 20:00-01:00, Fr 20:00-02:00, Sa 20:00-24:00"/>
    <tag k="phone" v="+43 660 7226639"/>
    <tag k="smoking" v="no"/>
    <tag k="theme" v="irish"/>
    <tag k="website" v="http://www.shamrock-vienna.at/"/>
    <tag k="wheelchair" v="no"/>
  </node>
  <node id="2446549028" lat="48.2337600" lon="16.4477710">
    <tag k="addr:city" v="Wien"/>
    <tag k="addr:country" v="AT"/>
    <tag k="addr:postcode" v="1220"/>
    <tag k="amenity" v="pub"/>
    <tag k="name" v="Siebenbürgerstüberl"/>
  </node>
  <node id="2450560273" lat="48.2499743" lon="16.4422829">
    <tag k="addr:city" v="Wien"/>
    <tag k="addr:country" v="AT"/>
    <tag k="addr:housenumber" v="250"/>
    <tag k="addr:postcode" v="1220"/>
    <tag k="addr:street" v="Donaufelder Straße"/>
    <tag k="amenity" v="pub"/>
    <tag k="name" v="Albatros"/>
    <tag k="operator" v="Josef Seidl"/>
  </node>
  <node id="2458558761" lat="48.1855229" lon="16.2988667">
    <tag k="addr:city" v="Wien"/>
    <tag k="addr:country" v="AT"/>
    <tag k="addr:housenumber" v="18"/>
    <tag k="addr:postcode" v="1130"/>
    <tag k="addr:street" v="Altgasse"/>
    <tag k="amenity" v="pub"/>
    <tag k="email" v="info@irishpub-hietzing.at"/>
    <tag k="name" v="Das Alt - Irish Pub Hietzing"/>
    <tag k="opening_hours" v="Mo-Su 16:00-02:00"/>
    <tag k="phone" v="+43 676 5403950"/>
    <tag k="smoking" v="isolated"/>
    <tag k="source" v="personal observation"/>
    <tag k="website" v="https://www.irishpub-hietzing.at/"/>
    <tag k="wheelchair" v="no"/>
    <tag k="wheelchair:description" v="Türbreite(cm) 80 2. Flügel kann geöffnet werden, Höhe der Stufe (cm) 2 Stufen: 1. 15, 2. 8, Tür Öffnung innen rechts. (geprüft von BALANCE - FORSCH!13)"/>
  </node>
  <node id="2481283639" lat="48.1836647" lon="16.3211717">
    <tag k="addr:city" v="Wien"/>
    <tag k="addr:country" v="AT"/>
    <tag k="addr:housenumber" v="268"/>
    <tag k="addr:postcode" v="1120"/>
    <tag k="addr:street" v="Schönbrunner Straße"/>
    <tag k="amenity" v="pub"/>
    <tag k="cuisine" v="irish;sandwich"/>
    <tag k="name" v="Connolly's"/>
    <tag k="opening_hours" v="Tu-Fr 16:00-00:00; Sa 18:00-00:00"/>
    <tag k="outdoor_seating" v="yes"/>
    <tag k="takeaway" v="yes"/>
    <tag k="website" v="http://www.connollys.at/"/>
    <tag k="wheelchair" v="no"/>
  </node>
  <node id="2500519191" lat="48.2045976" lon="16.3684188">
    <tag k="amenity" v="pub"/>
    <tag k="name" v="Filmmuseum Bar"/>
  </node>
  <node id="2609889223" lat="48.2300822" lon="16.3491882">
    <tag k="addr:city" v="Wien"/>
    <tag k="addr:housenumber" v="6"/>
    <tag k="addr:postcode" v="1180"/>
    <tag k="addr:street" v="Anastasius-Grün-Gasse"/>
    <tag k="amenity" v="pub"/>
    <tag k="email" v="office.nanog@gmail.com"/>
    <tag k="indoor_seating" v="yes"/>
    <tag k="name" v="Na-nÓg – Irish Pub"/>
    <tag k="opening_hours" v="Mo-Sa 18:00-01:00"/>
    <tag k="outdoor_seating" v="yes"/>
    <tag k="payment:cash" v="yes"/>
    <tag k="payment:credit_cards" v="yes"/>
    <tag k="payment:debit_cards" v="yes"/>
    <tag k="phone" v="+43 676 5747870"/>
    <tag k="sport" v="darts"/>
    <tag k="website" v="https://www.nanog.at"/>
    <tag k="wheelchair" v="yes"/>
  </node>
  <node id="2736336390" lat="48.2093993" lon="16.3770325">
    <tag k="addr:city" v="Wien"/>
    <tag k="addr:country" v="AT"/>
    <tag k="addr:housenumber" v="2"/>
    <tag k="addr:postcode" v="1010"/>
    <tag k="addr:street" v="Schönlaterngasse"/>
    <tag k="amenity" v="pub"/>
    <tag k="name" v="Lukas"/>
    <tag k="phone" v="+43 1 5135090"/>
    <tag k="wheelchair" v="no"/>
  </node>
  <node id="2901356099" lat="48.2085932" lon="16.3438593">
    <tag k="addr:city" v="Wien"/>
    <tag k="addr:country" v="AT"/>
    <tag k="addr:housenumber" v="12"/>
    <tag k="addr:postcode" v="1080"/>
    <tag k="addr:street" v="Albertgasse"/>
    <tag k="amenity" v="pub"/>
    <tag k="cash_withdrawal" v="yes"/>
    <tag k="changing_table" v="no"/>
    <tag k="internet_access" v="wlan"/>
    <tag k="internet_access:fee" v="no"/>
    <tag k="name" v="Polkadot"/>
    <tag k="opening_hours" v="Mo-Th 19:00-02:00; Fr,Sa 19:00-04:00; 19:00-02:00"/>
    <tag k="smoking" v="isolated"/>
    <tag k="takeaway" v="no"/>
    <tag k="toilets" v="yes"/>
    <tag k="toilets:access" v="permissive"/>
    <tag k="toilets:wheelchair" v="limited"/>
    <tag k="website" v="http://polkadot.at/"/>
    <tag k="wheelchair" v="limited"/>
    <tag k="wheelchair:description" v="Im Sommer Gastgarten vorhanden, die Kellner helfen gerne. getestet von Andreas Tettinger"/>
  </node>
  <node id="2946719924" lat="48.2117558" lon="16.3738631">
    <tag k="addr:city" v="Wien"/>
    <tag k="addr:country" v="AT"/>
    <tag k="addr:housenumber" v="9"/>
    <tag k="addr:postcode" v="1010"/>
    <tag k="addr:street" v="Judengasse"/>
    <tag k="amenity" v="pub"/>
    <tag k="check_date" v="2022-09-09"/>
    <tag k="name" v="Joe's"/>
    <tag k="wheelchair" v="no"/>
  </node>
  <node id="2960890388" lat="48.2068458" lon="16.3473719">
    <tag k="addr:city" v="Wien"/>
    <tag k="addr:country" v="AT"/>
    <tag k="addr:housenumber" v="60"/>
    <tag k="addr:postcode" v="1080"/>
    <tag k="addr:street" v="Lerchenfelder Straße"/>
    <tag k="amenity" v="pub"/>
    <tag k="name" v="Fridos"/>
    <tag k="opening_hours" v="Mo-Th 18:00-02:00;Fr-Sa 18:00-04:00;Su 17:00-02:00;&quot;closing times can vary&quot;"/>
    <tag k="sport" v="table_soccer"/>
    <tag k="website" v="http://www.fridos.at"/>
  </node>
  <node id="3016770833" lat="48.2045545" lon="16.3513894">
    <tag k="addr:city" v="Wien"/>
    <tag k="addr:country" v="AT"/>
    <tag k="addr:housenumber" v="41"/>
    <tag k="addr:postcode" v="1070"/>
    <tag k="addr:street" v="Kirchengasse"/>
    <tag k="amenity" v="pub"/>
    <tag k="name" v="KÖÖ 7"/>
    <tag k="opening_hours" v="Mo-Su 10:00-02:00"/>
    <tag k="operator" v="Sportstätten &amp; GastronomiebetriebsgmbH"/>
    <tag k="outdoor_seating" v="no"/>
    <tag k="smoking" v="isolated"/>
    <tag k="website" v="http://www.billardcafe.at/de/lokale/1070-kirchengasse.html"/>
    <tag k="wheelchair" v="no"/>
    <tag k="wheelchair:description" v="Billard lokal"/>
  </node>
  <node id="3215857491" lat="48.2122253" lon="16.3742271">
    <tag k="addr:city" v="Wien"/>
    <tag k="addr:country" v="AT"/>
    <tag k="addr:housenumber" v="1"/>
    <tag k="addr:postcode" v="1010"/>
    <tag k="addr:street" v="Ruprechtsplatz"/>
    <tag k="amenity" v="pub"/>
    <tag k="name" v="Kitsch"/>
  </node>
  <node id="3215857497" lat="48.2118153" lon="16.3743788">
    <tag k="addr:city" v="Wien"/>
    <tag k="addr:country" v="AT"/>
    <tag k="addr:housenumber" v="3"/>
    <tag k="addr:postcode" v="1010"/>
    <tag k="addr:street" v="Seitenstettengasse"/>
    <tag k="amenity" v="pub"/>
    <tag k="check_date" v="2022-09-09"/>
    <tag k="name" v="Nelson's Pub"/>
  </node>
  <node id="3271174773" lat="48.2296754" lon="16.3504106">
    <tag k="addr:city" v="Wien"/>
    <tag k="addr:country" v="AT"/>
    <tag k="addr:housenumber" v="156-157"/>
    <tag k="addr:postcode" v="1090"/>
    <tag k="addr:street" v="Stadtbahnbogen"/>
    <tag k="amenity" v="pub"/>
    <tag k="brewery" v="Stiegl"/>
    <tag k="indoor_seating" v="yes"/>
    <tag k="name" v="Pappala Pub"/>
    <tag k="opening_hours" v="Mo-Sa 15:00-23:00"/>
    <tag k="outdoor_seating" v="yes"/>
    <tag k="smoking" v="separated"/>
    <tag k="website" v="http://www.ppub.at"/>
  </node>
  <node id="3271174774" lat="48.2294164" lon="16.3503540">
    <tag k="addr:city" v="Wien"/>
    <tag k="addr:country" v="AT"/>
    <tag k="addr:housenumber" v="153"/>
    <tag k="addr:postcode" v="1090"/>
    <tag k="addr:street" v="Stadtbahnbogen"/>
    <tag k="amenity" v="pub"/>
    <tag k="brewery" v="Schremser"/>
    <tag k="indoor_seating" v="yes"/>
    <tag k="name" v="SOS - the bar"/>
    <tag k="opening_hours" v="Mo-Su 17:00-01:00"/>
    <tag k="outdoor_seating" v="yes"/>
    <tag k="smoking" v="yes"/>
    <tag k="website" v="http://www.ppub.at"/>
  </node>
  <node id="3271174775" lat="48.2284728" lon="16.3501513">
    <tag k="addr:city" v="Wien"/>
    <tag k="addr:country" v="AT"/>
    <tag k="addr:housenumber" v="142-144"/>
    <tag k="addr:postcode" v="1090"/>
    <tag k="addr:street" v="Stadtbahnbogen"/>
    <tag k="amenity" v="pub"/>
    <tag k="indoor_seating" v="yes"/>
    <tag k="name" v="[kju:]"/>
    <tag k="opening_hours" v="Mo, Th-Sa 20:00-04:00"/>
    <tag k="outdoor_seating" v="no"/>
    <tag k="website" v="https://www.kju-bar.at/"/>
  </node>
  <node id="3271345296" lat="48.2294990" lon="16.3503737">
    <tag k="addr:city" v="Wien"/>
    <tag k="addr:country" v="AT"/>
    <tag k="addr:housenumber" v="154"/>
    <tag k="addr:postcode" v="1090"/>
    <tag k="addr:street" v="Stadtbahnbogen"/>
    <tag k="amenity" v="pub"/>
    <tag k="indoor_seating" v="yes"/>
    <tag k="name" v="Weinstadt"/>
    <tag k="opening_hours" v="Tu-Sa 17:00-23:00"/>
    <tag k="outdoor_seating" v="yes"/>
    <tag k="website" v="https://www.weinstadt.cc/"/>
  </node>
  <node id="3273321595" lat="48.2148560" lon="16.3379308">
    <tag k="addr:city" v="Wien"/>
    <tag k="addr:country" v="AT"/>
    <tag k="addr:housenumber" v="19"/>
    <tag k="addr:postcode" v="1160"/>
    <tag k="addr:street" v="Ottakringer Straße"/>
    <tag k="amenity" v="pub"/>
    <tag k="at_bev:addr_date" v="2022-04-01"/>
    <tag k="name" v="The green bogey"/>
  </node>
  <node id="3370159116" lat="48.1877465" lon="16.4130330">
    <tag k="addr:city" v="Wien"/>
    <tag k="addr:country" v="AT"/>
    <tag k="addr:housenumber" v="80"/>
    <tag k="addr:postcode" v="1030"/>
    <tag k="addr:street" v="Baumgasse"/>
    <tag k="amenity" v="pub"/>
    <tag k="contact:phone" v="+43 1 7983339"/>
    <tag k="contact:website" v="http://arenavie.com/web/beisl"/>
    <tag k="name" v="Arena Beisl"/>
    <tag k="opening_hours" v="Mo 17:00-02:00; Tu-Su 16:00-02:00"/>
    <tag k="sport" v="table_soccer"/>
    <tag k="toilets:wheelchair" v="yes"/>
    <tag k="wheelchair" v="yes"/>
    <tag k="wheelchair:description" v="mehrere Barrierefreie WCs am Arenagelände vorhanden!"/>
  </node>
  <node id="3370506913" lat="48.2267516" lon="16.3113023">
    <tag k="addr:city" v="Wien"/>
    <tag k="addr:country" v="AT"/>
    <tag k="addr:housenumber" v="19"/>
    <tag k="addr:postcode" v="1170"/>
    <tag k="addr:street" v="Alszeile"/>
    <tag k="amenity" v="pub"/>
    <tag k="name" v="The Flag"/>
    <tag k="sport" v="table_soccer"/>
  </node>
  <node id="3370516708" lat="48.2058141" lon="16.3443762">
    <tag k="addr:city" v="Wien"/>
    <tag k="addr:country" v="AT"/>
    <tag k="addr:housenumber" v="84"/>
    <tag k="addr:postcode" v="1070"/>
    <tag k="addr:street" v="Neustiftgasse"/>
    <tag k="alt_name" v="Apothekn"/>
    <tag k="amenity" v="pub"/>
    <tag k="internet_access" v="wlan"/>
    <tag k="name" v="Apothek'n"/>
    <tag k="opening_hours" v="Mo-Th 18:00-02:00;Fr-Sa 20:00-04:00"/>
    <tag k="phone" v="+43 699 11516886"/>
    <tag k="sport" v="table_soccer"/>
    <tag k="website" v="http://www.apothekn.at"/>
    <tag k="wlan" v="yes"/>
  </node>
  <node id="3370643936" lat="48.1945742" lon="16.3537377">
    <tag k="addr:city" v="Wien"/>
    <tag k="addr:country" v="AT"/>
    <tag k="addr:housenumber" v="94"/>
    <tag k="addr:postcode" v="1060"/>
    <tag k="addr:street" v="Linke Wienzeile"/>
    <tag k="amenity" v="pub"/>
    <tag k="name" v="KUKU"/>
    <tag k="opening_hours" v="We-Sa 19:00-02:00"/>
    <tag k="sport" v="table_soccer"/>
    <tag k="website" v="http://kuku.sil.at/"/>
  </node>
  <node id="3386759591" lat="48.1900140" lon="16.3554007">
    <tag k="amenity" v="pub"/>
    <tag k="brewery" v="Guinness;Trumer"/>
    <tag k="brewery:Pils" v="Trumer"/>
    <tag k="brewery:Zwickl" v="Trumer"/>
    <tag k="email" v="info@littlestage.at"/>
    <tag k="name" v="The Little Stage"/>
    <tag k="opening_hours" v="Mo-Fr 17:00-02:00; Sa,PH 18:00-02:00; Su 18:00-24:00"/>
    <tag k="operator" v="Manfred Szendi"/>
    <tag k="payment:cash" v="yes"/>
    <tag k="payment:maestro" v="yes"/>
    <tag k="phone" v="+43 1 5442690"/>
    <tag k="smoking" v="separated"/>
    <tag k="website" v="https://www.littlestage.at/"/>
    <tag k="wheelchair" v="limited"/>
  </node>
  <node id="3394931379" lat="48.2067976" lon="16.3795715">
    <tag k="addr:city" v="Wien"/>
    <tag k="addr:country" v="AT"/>
    <tag k="addr:housenumber" v="4"/>
    <tag k="addr:postcode" v="1010"/>
    <tag k="addr:street" v="Parkring"/>
    <tag k="amenity" v="pub"/>
    <tag k="description" v="G´Day Mate and welcome to Billabong - a little bit of OZ in the heart of Vienna. Why not enjoy a Bevy from our selection of Australian, Austrian and International bottled and tapped beers, in a bar well know for its friendly staff, quick service and fresh"/>
    <tag k="email" v="office@billabong.at"/>
    <tag k="level" v="0"/>
    <tag k="name" v="Billabong"/>
    <tag k="opening_hours" v="Mo-Sa 11:30-02:00; Su 11:30-00:00"/>
    <tag k="phone" v="+43 1 512 10 08"/>
    <tag k="website" v="https://www.billabong.at/"/>
    <tag k="wheelchair" v="no"/>
  </node>
  <node id="3456346364" lat="48.2180717" lon="16.3774680">
    <tag k="addr:city" v="Wien"/>
    <tag k="addr:country" v="AT"/>
    <tag k="addr:housenumber" v="33"/>
    <tag k="addr:postcode" v="1020"/>
    <tag k="addr:street" v="Leopoldsgasse"/>
    <tag k="amenity" v="pub"/>
    <tag k="contact:website" v="http://www.altenberg.wien"/>
    <tag k="name" v="Altenberg"/>
    <tag k="opening_hours" v="Mo-Fr 10:00+"/>
  </node>
  <node id="3496036730" lat="48.1705345" lon="16.3817892">
    <tag k="amenity" v="pub"/>
    <tag k="outdoor_seating" v="yes"/>
  </node>
  <node id="3498914518" lat="48.2151708" lon="16.3564204">
    <tag k="addr:city" v="Wien"/>
    <tag k="addr:country" v="AT"/>
    <tag k="addr:housenumber" v="3"/>
    <tag k="addr:postcode" v="1090"/>
    <tag k="addr:street" v="Garnisongasse"/>
    <tag k="amenity" v="pub"/>
    <tag k="name" v="Highlander Scottish Pub"/>
    <tag k="opening_hours" v="Mo-Su 14:00-02:00"/>
    <tag k="wheelchair" v="yes"/>
  </node>
  <node id="3499756835" lat="48.2227586" lon="16.3171628">
    <tag k="addr:city" v="Wien"/>
    <tag k="addr:country" v="AT"/>
    <tag k="addr:housenumber" v="165"/>
    <tag k="addr:postcode" v="1170"/>
    <tag k="addr:street" v="Hernalser Hauptstraße"/>
    <tag k="amenity" v="pub"/>
    <tag k="cuisine" v="coffee_shop"/>
    <tag k="indoor_seating" v="yes"/>
    <tag k="name" v="Cafe 165"/>
    <tag k="opening_hours" v="Mo-Su 09:00-02:00"/>
    <tag k="outdoor_seating" v="yes"/>
  </node>
  <node id="3575494523" lat="48.2010215" lon="16.3696414">
    <tag k="addr:city" v="Wien"/>
    <tag k="addr:country" v="AT"/>
    <tag k="addr:housenumber" v="1"/>
    <tag k="addr:postcode" v="1010"/>
    <tag k="addr:street" v="Karlsplatz"/>
    <tag k="amenity" v="pub"/>
    <tag k="name" v="Code 1842"/>
    <tag k="website" v="http://www.code1842.com"/>
  </node>
  <node id="3636472620" lat="48.2142411" lon="16.3418976">
    <tag k="amenity" v="pub"/>
    <tag k="name" v="Moni's Tschecherl"/>
  </node>
  <node id="3754710524" lat="48.1888912" lon="16.3353846">
    <tag k="amenity" v="pub"/>
    <tag k="name" v="Pub Times"/>
  </node>
  <node id="3759276918" lat="48.1774815" lon="16.3239971">
    <tag k="amenity" v="pub"/>
    <tag k="name" v="Ratschky Stüberl"/>
  </node>
  <node id="3812967592" lat="48.1693420" lon="16.3704247">
    <tag k="addr:city" v="Wien"/>
    <tag k="addr:country" v="AT"/>
    <tag k="addr:housenumber" v="90"/>
    <tag k="addr:postcode" v="1100"/>
    <tag k="addr:street" v="Laxenburger Straße"/>
    <tag k="amenity" v="pub"/>
    <tag k="name" v="Chicago"/>
    <tag k="smoking" v="yes"/>
  </node>
  <node id="3987086364" lat="48.2322337" lon="16.3554434">
    <tag k="addr:city" v="Wien"/>
    <tag k="addr:country" v="AT"/>
    <tag k="addr:housenumber" v="10"/>
    <tag k="addr:postcode" v="1090"/>
    <tag k="addr:street" v="Heiligenstädter Straße"/>
    <tag k="amenity" v="pub"/>
    <tag k="cuisine" v="sausage;sandwich"/>
    <tag k="name" v="Unbedingt"/>
    <tag k="operator" v="Gerti"/>
    <tag k="outdoor_seating" v="no"/>
    <tag k="real_fire" v="wood-burner"/>
    <tag k="smoking" v="separated"/>
  </node>
  <node id="4071888374" lat="48.2173888" lon="16.3210686">
    <tag k="amenity" v="pub"/>
    <tag k="name" v="Cafe BN"/>
  </node>
  <node id="4100000112" lat="48.2235660" lon="16.4014517">
    <tag k="addr:city" v="Wien"/>
    <tag k="addr:country" v="AT"/>
    <tag k="addr:housenumber" v="40"/>
    <tag k="addr:postcode" v="1020"/>
    <tag k="addr:street" v="Lassallestraße"/>
    <tag k="amenity" v="pub"/>
    <tag k="contact:facebook" v="https://www.facebook.com/ZumSchlauch1020/"/>
    <tag k="name" v="Zum Schlauch"/>
    <tag k="old_name" v="Willi und Isabell´s Beisl"/>
    <tag k="opening_hours:signed" v="no"/>
    <tag k="operator" v="Willibald Schäffel jun."/>
  </node>
  <node id="4100026450" lat="48.2042174" lon="16.3411164">
    <tag k="addr:city" v="Wien"/>
    <tag k="addr:country" v="AT"/>
    <tag k="addr:housenumber" v="103a"/>
    <tag k="addr:postcode" v="1070"/>
    <tag k="addr:street" v="Burggasse"/>
    <tag k="amenity" v="pub"/>
    <tag k="check_date" v="2022-10-01"/>
    <tag k="name" v="Laternderl"/>
    <tag k="opening_hours" v="Mo-Sa 16:00-22:00+"/>
  </node>
  <node id="4100575567" lat="48.2193332" lon="16.3989920">
    <tag k="addr:city" v="Wien"/>
    <tag k="addr:country" v="AT"/>
    <tag k="addr:housenumber" v="22"/>
    <tag k="addr:postcode" v="1020"/>
    <tag k="addr:street" v="Wolfgang-Schmälzl-Gasse"/>
    <tag k="amenity" v="pub"/>
    <tag k="name" v="Cafe Happy Day"/>
    <tag k="opening_hours:signed" v="no"/>
    <tag k="outdoor_seating" v="yes"/>
    <tag k="sport" v="darts;billiards"/>
  </node>
  <node id="4224318922" lat="48.2074527" lon="16.3396133">
    <tag k="amenity" v="pub"/>
    <tag k="name" v="Beertija"/>
  </node>
  <node id="4280661780" lat="48.1992859" lon="16.3188456">
    <tag k="addr:city" v="Wien"/>
    <tag k="addr:country" v="AT"/>
    <tag k="addr:housenumber" v="69"/>
    <tag k="addr:postcode" v="1150"/>
    <tag k="addr:street" v="Johnstraße"/>
    <tag k="amenity" v="pub"/>
    <tag k="indoor_seating" v="yes"/>
    <tag k="name" v="The Golden Harp"/>
    <tag k="outdoor_seating" v="yes"/>
    <tag k="phone" v="+43 699 19072238"/>
    <tag k="website" v="https://www.goldenharp1150.at/"/>
    <tag k="wheelchair" v="yes"/>
  </node>
  <node id="4400167893" lat="48.2526986" lon="16.4099861">
    <tag k="amenity" v="pub"/>
    <tag k="name" v="Kinzer Stüberl"/>
    <tag k="opening_hours" v="Mo-Su 09:00-22:00"/>
  </node>
  <node id="4401702811" lat="48.2316213" lon="16.3531669">
    <tag k="addr:city" v="Wien"/>
    <tag k="addr:country" v="AT"/>
    <tag k="addr:housenumber" v="180"/>
    <tag k="addr:postcode" v="1090"/>
    <tag k="addr:street" v="Stadtbahnbogen"/>
    <tag k="amenity" v="pub"/>
    <tag k="cuisine" v="sandwich"/>
    <tag k="darts" v="yes"/>
    <tag k="indoor_seating" v="yes"/>
    <tag k="name" v="Glashütte"/>
    <tag k="opening_hours" v="Mo-Su 08:00-24:00"/>
    <tag k="outdoor_seating" v="yes"/>
    <tag k="smoking" v="yes"/>
    <tag k="sport" v="darts"/>
  </node>
  <node id="4603998628" lat="48.1852302" lon="16.3438339">
    <tag k="amenity" v="pub"/>
    <tag k="indoor_seating" v="yes"/>
    <tag k="name" v="Arndtstüberl"/>
    <tag k="opening_hours" v="PH,Mo-Su 10:00-23:00"/>
    <tag k="outdoor_seating" v="yes"/>
  </node>
  <node id="4903329860" lat="48.2298215" lon="16.3566129">
    <tag k="addr:city" v="Wien"/>
    <tag k="addr:country" v="AT"/>
    <tag k="addr:housenumber" v="104-106"/>
    <tag k="addr:postcode" v="1090"/>
    <tag k="addr:street" v="Liechtensteinstraße"/>
    <tag k="amenity" v="pub"/>
    <tag k="indoor_seating" v="yes"/>
    <tag k="name" v="Tam o´Shanter´s"/>
    <tag k="opening_hours" v="Mo-Th 16:30-02:00, Fr-Sa 16:30-04:00, Su 16:30-02:00"/>
    <tag k="outdoor_seating" v="yes"/>
    <tag k="website" v="https://www.tamoshanters.at/"/>
  </node>
  <node id="4942009991" lat="48.1174173" lon="16.2459895">
    <tag k="addr:city" v="Perchtoldsdorf"/>
    <tag k="addr:country" v="AT"/>
    <tag k="addr:housenumber" v="40"/>
    <tag k="addr:postcode" v="2380"/>
    <tag k="addr:street" v="Fehnerweg"/>
    <tag k="amenity" v="pub"/>
    <tag k="cuisine" v="wine"/>
    <tag k="leisure" v="outdoor_seating"/>
    <tag k="name" v="Mohrenberger Alm I"/>
    <tag k="opening_hours" v="PH,Mo-Su 00:00-24:00"/>
    <tag k="website" v="http://www.mohrenberger.at"/>
  </node>
  <node id="4969198779" lat="48.2284272" lon="16.3382302">
    <tag k="addr:city" v="Wien"/>
    <tag k="addr:country" v="AT"/>
    <tag k="addr:housenumber" v="3"/>
    <tag k="addr:postcode" v="1180"/>
    <tag k="addr:street" v="Dittesgasse"/>
    <tag k="amenity" v="pub"/>
    <tag k="email" v="info@cafe-trabant.at"/>
    <tag k="food" v="yes"/>
    <tag k="name" v="Café Trabant"/>
    <tag k="opening_hours" v="Tu-Th 16:00-23:45; Fr,Sa 16:00-01:00"/>
    <tag k="real_fire" v="stove"/>
    <tag k="smoking" v="no"/>
    <tag k="website" v="https://www.facebook.com/CafeTrabant"/>
  </node>
  <node id="4980027278" lat="48.2345283" lon="16.4724299">
    <tag k="addr:city" v="Wien"/>
    <tag k="addr:country" v="AT"/>
    <tag k="addr:housenumber" v="4"/>
    <tag k="addr:postcode" v="1220"/>
    <tag k="addr:street" v="Emichgasse"/>
    <tag k="amenity" v="pub"/>
    <tag k="name" v="Wistl's Cafe"/>
  </node>
  <node id="5009471625" lat="48.1862490" lon="16.3731149">
    <tag k="addr:city" v="Wien"/>
    <tag k="addr:country" v="AT"/>
    <tag k="addr:housenumber" v="1"/>
    <tag k="addr:postcode" v="1040"/>
    <tag k="addr:street" v="Südtiroler Platz"/>
    <tag k="amenity" v="pub"/>
    <tag k="name" v="Just 4 Fun"/>
    <tag k="opening_hours" v="Mo-Fr 10:00-02:00; Sa 14:00-02:00"/>
    <tag k="phone" v="+43 1 6607616598"/>
  </node>
  <node id="5042503341" lat="48.1917944" lon="16.3591202">
    <tag k="addr:city" v="Wien"/>
    <tag k="addr:country" v="AT"/>
    <tag k="addr:housenumber" v="1"/>
    <tag k="addr:postcode" v="1050"/>
    <tag k="addr:street" v="Margaretenplatz"/>
    <tag k="amenity" v="pub"/>
    <tag k="level" v="0"/>
    <tag k="name" v="Cafe Liquid"/>
    <tag k="opening_hours" v="Mo-Sa 08:00-02:00; Su 08:00-24:00"/>
    <tag k="outdoor_seating" v="yes"/>
    <tag k="phone" v="+43 699 12771506"/>
    <tag k="website" v="https://www.facebook.com/Cafe-Liquid-241818455829745/"/>
  </node>
  <node id="5127814400" lat="48.2050929" lon="16.3275012">
    <tag k="amenity" v="pub"/>
    <tag k="name" v="Domino"/>
  </node>
  <node id="5150132301" lat="48.2318015" lon="16.3525104">
    <tag k="access" v="private"/>
    <tag k="addr:city" v="Wien"/>
    <tag k="addr:country" v="AT"/>
    <tag k="addr:housenumber" v="135"/>
    <tag k="addr:postcode" v="1180"/>
    <tag k="addr:street" v="Währinger Gürtel"/>
    <tag k="amenity" v="pub"/>
    <tag k="check_date" v="2022-09-27"/>
    <tag k="club" v="yes"/>
    <tag k="indoor_seating" v="yes"/>
    <tag k="name" v="Einfach So"/>
    <tag k="outdoor_seating" v="no"/>
    <tag k="smoking" v="dedicated"/>
  </node>
  <node id="5150215495" lat="48.2421791" lon="16.3268549">
    <tag k="addr:city" v="Wien"/>
    <tag k="addr:country" v="AT"/>
    <tag k="addr:housenumber" v="106a"/>
    <tag k="addr:postcode" v="1190"/>
    <tag k="addr:street" v="Krottenbachstraße"/>
    <tag k="alt_name" v="s'häferl cafe"/>
    <tag k="amenity" v="pub"/>
    <tag k="brewery" v="various"/>
    <tag k="contact:phone" v="+43 1 3687872"/>
    <tag k="distillery" v="various"/>
    <tag k="name" v="s' Häferlcafé"/>
    <tag k="old_name" v="Espresso Karin"/>
    <tag k="operator" v="Petra Lamot KG"/>
    <tag k="outdoor_seating" v="yes"/>
    <tag k="winery" v="yes"/>
  </node>
  <node id="5152408891" lat="48.2303078" lon="16.3480379">
    <tag k="addr:city" v="Wien"/>
    <tag k="addr:country" v="AT"/>
    <tag k="addr:housenumber" v="12"/>
    <tag k="addr:postcode" v="1180"/>
    <tag k="addr:street" v="Anastasius-Grün-Gasse"/>
    <tag k="amenity" v="pub"/>
    <tag k="cuisine" v="regional"/>
    <tag k="darts" v="yes"/>
    <tag k="indoor_seating" v="yes"/>
    <tag k="name" v="Gasthaus Manu"/>
    <tag k="opening_hours" v="Mo-Fr 10:00-20:00; PH,Sa,Su 15:00-20:00"/>
    <tag k="outdoor_seating" v="yes"/>
    <tag k="sport" v="darts"/>
  </node>
  <node id="5162942855" lat="48.2048458" lon="16.3274722">
    <tag k="addr:city" v="Wien"/>
    <tag k="addr:country" v="AT"/>
    <tag k="addr:housenumber" v="35-37"/>
    <tag k="addr:postcode" v="1150"/>
    <tag k="addr:street" v="Gablenzgasse"/>
    <tag k="amenity" v="pub"/>
    <tag k="name" v="Café zur Gemütlichkeit"/>
    <tag k="wheelchair" v="no"/>
  </node>
  <node id="5162942863" lat="48.2086782" lon="16.3391832">
    <tag k="addr:city" v="Wien"/>
    <tag k="addr:country" v="AT"/>
    <tag k="addr:housenumber" v="1"/>
    <tag k="addr:postcode" v="1080"/>
    <tag k="addr:street" v="Blindengasse"/>
    <tag k="amenity" v="pub"/>
    <tag k="name" v="Mokador 8"/>
    <tag k="opening_hours" v="Mo-Fr 09:00-02:00; Sa 11:00-03:00; Su 11:00-00:00"/>
    <tag k="phone" v="+43-1-526 5837"/>
    <tag k="website" v="http://www.mokador.at"/>
  </node>
  <node id="5251112787" lat="48.1977226" lon="16.3258075">
    <tag k="addr:city" v="Wien"/>
    <tag k="addr:country" v="AT"/>
    <tag k="addr:housenumber" v="66"/>
    <tag k="addr:postcode" v="1150"/>
    <tag k="addr:street" v="Märzstraße"/>
    <tag k="amenity" v="pub"/>
    <tag k="contact:facebook" v="exilwien"/>
    <tag k="contact:phone" v="+43 650 9582200"/>
    <tag k="contact:website" v="http://exilbar.at/"/>
    <tag k="indoor_seating" v="yes"/>
    <tag k="name" v="Exil in der Märzstraße"/>
    <tag k="opening_hours" v="Mo-Th 15:00-23:00; Fr-Sa 15:00-23:00"/>
    <tag k="opening_hours:covid19" v="15:00-23:00; Su off"/>
    <tag k="outdoor_seating" v="yes"/>
    <tag k="smoking" v="separated"/>
    <tag k="wheelchair" v="limited"/>
    <tag k="wheelchair:description" v="Mobile Rampe"/>
  </node>
  <node id="5253716119" lat="48.1726657" lon="16.3335975">
    <tag k="amenity" v="pub"/>
    <tag k="name" v="Zur Wienerin"/>
  </node>
  <node id="5318937068" lat="48.1981666" lon="16.3136238">
    <tag k="amenity" v="pub"/>
    <tag k="indoor_seating" v="yes"/>
    <tag k="name" v="Stüberl 52"/>
    <tag k="outdoor_seating" v="no"/>
  </node>
  <node id="5318937069" lat="48.1978895" lon="16.3148235">
    <tag k="amenity" v="pub"/>
    <tag k="indoor_seating" v="yes"/>
    <tag k="name" v="zum Kutscher"/>
    <tag k="outdoor_seating" v="yes"/>
  </node>
  <node id="5349669220" lat="48.2001538" lon="16.3590316">
    <tag k="amenity" v="pub"/>
    <tag k="name" v="Laurel Leaf"/>
    <tag k="wheelchair" v="no"/>
  </node>
  <node id="5382829764" lat="48.1956281" lon="16.3126191">
    <tag k="amenity" v="pub"/>
    <tag k="name" v="Imbiss Belo"/>
    <tag k="opening_hours" v="Mo-Fr 10:00-22:00; Sa 10:00-17:00+"/>
  </node>
  <node id="5507799407" lat="48.1853486" lon="16.3584693">
    <tag k="addr:city" v="Wien"/>
    <tag k="addr:country" v="AT"/>
    <tag k="addr:housenumber" v="20"/>
    <tag k="addr:postcode" v="1050"/>
    <tag k="addr:street" v="Wimmergasse"/>
    <tag k="amenity" v="pub"/>
    <tag k="brewery" v="Murauer"/>
    <tag k="contact:website" v="http://www.hinteralm.at/"/>
    <tag k="entrance" v="yes"/>
    <tag k="name" v="Hinteralm"/>
    <tag k="smoking" v="yes"/>
  </node>
  <node id="5601799593" lat="48.1858882" lon="16.3010253">
    <tag k="addr:city" v="Wien"/>
    <tag k="addr:country" v="AT"/>
    <tag k="addr:housenumber" v="5"/>
    <tag k="addr:postcode" v="1130"/>
    <tag k="addr:street" v="Am Platz"/>
    <tag k="amenity" v="pub"/>
    <tag k="name" v="Brandauers Bierstube"/>
    <tag k="opening_hours" v="17:00-02:00"/>
    <tag k="phone" v="+43 1 877 00 11"/>
    <tag k="website" v="https://www.bierig.at/_lccms_/_00583/Home.htm?MID=414"/>
  </node>
  <node id="5647247299" lat="48.2137571" lon="16.3363311">
    <tag k="addr:city" v="Wien"/>
    <tag k="addr:country" v="AT"/>
    <tag k="addr:housenumber" v="14"/>
    <tag k="addr:postcode" v="1160"/>
    <tag k="addr:street" v="Payergasse"/>
    <tag k="alt_name" v="Club International"/>
    <tag k="amenity" v="pub"/>
    <tag k="email" v="office@ci.or.at"/>
    <tag k="level" v="0"/>
    <tag k="name" v="Cafe C.I."/>
    <tag k="opening_hours" v="Mo-Sa 08:00-02:00; Su 10:00-02:00"/>
    <tag k="outdoor_seating" v="yes"/>
    <tag k="phone" v="+43 1 4031827"/>
    <tag k="smoking" v="yes"/>
    <tag k="website" v="http://www.ci.or.at/"/>
    <tag k="wheelchair" v="yes"/>
  </node>
  <node id="5664809640" lat="48.1900055" lon="16.3528174">
    <tag k="addr:city" v="Wien"/>
    <tag k="addr:country" v="AT"/>
    <tag k="addr:housenumber" v="66"/>
    <tag k="addr:postcode" v="1050"/>
    <tag k="addr:street" v="Schönbrunner Straße"/>
    <tag k="amenity" v="pub"/>
    <tag k="contact:email" v="info@polt.wien"/>
    <tag k="contact:phone" v="+43 699 17187154"/>
    <tag k="contact:website" v="https://polt.wien"/>
    <tag k="indoor_seating" v="yes"/>
    <tag k="name" v="polt bayrish pub"/>
    <tag k="opening_hours" v="Mo-Fr 17:00-02:00"/>
    <tag k="outdoor_seating" v="yes"/>
  </node>
  <node id="5675297679" lat="48.1950946" lon="16.3495009">
    <tag k="amenity" v="pub"/>
    <tag k="indoor_seating" v="yes"/>
    <tag k="name" v="Heinzis Beisl"/>
    <tag k="opening_hours" v="Mo-Sa 10:00-23:00"/>
    <tag k="outdoor_seating" v="yes"/>
  </node>
  <node id="5720857595" lat="48.1734056" lon="16.4168901">
    <tag k="amenity" v="pub"/>
    <tag k="level" v="0"/>
    <tag k="name" v="Bier&amp;Bier Plus"/>
    <tag k="opening_hours:signed" v="no"/>
    <tag k="source" v="yes"/>
    <tag k="wheelchair" v="limited"/>
  </node>
  <node id="5874097591" lat="48.1943749" lon="16.2859768">
    <tag k="addr:city" v="Wien"/>
    <tag k="addr:country" v="AT"/>
    <tag k="addr:housenumber" v="241"/>
    <tag k="addr:postcode" v="1140"/>
    <tag k="addr:street" v="Linzer Straße"/>
    <tag k="amenity" v="pub"/>
    <tag k="cuisine" v="regional"/>
    <tag k="name" v="Schani's Beisl"/>
    <tag k="opening_hours" v="Mo-Fr 09:00-24:00"/>
    <tag k="outdoor_seating" v="yes"/>
    <tag k="smoking" v="yes"/>
  </node>
  <node id="6044973219" lat="48.1661328" lon="16.3246711">
    <tag k="amenity" v="pub"/>
    <tag k="name" v="Das Oswald"/>
    <tag k="smoking" v="outside"/>
    <tag k="wheelchair" v="no"/>
  </node>
  <node id="6164368770" lat="48.2296360" lon="16.3779603">
    <tag k="amenity" v="pub"/>
    <tag k="name" v="Heaven Pub"/>
  </node>
  <node id="6184632917" lat="48.2318658" lon="16.3883712">
    <tag k="addr:city" v="Wien"/>
    <tag k="addr:country" v="AT"/>
    <tag k="addr:housenumber" v="107"/>
    <tag k="addr:postcode" v="1200"/>
    <tag k="addr:street" v="Pasettistraße"/>
    <tag k="amenity" v="pub"/>
    <tag k="darts:type" v="steel"/>
    <tag k="email" v="info@cafesteel.at"/>
    <tag k="name" v="Café Steel"/>
    <tag k="opening_hours" v="Mo-Sa 08:00-01:00; Su 10:00-23:00"/>
    <tag k="phone" v="+436606179654"/>
    <tag k="smoking" v="separated"/>
    <tag k="sport" v="dart"/>
    <tag k="wheelchair" v="limited"/>
  </node>
  <node id="6762165857" lat="48.1917152" lon="16.3581449">
    <tag k="addr:city" v="Wien"/>
    <tag k="addr:housenumber" v="5"/>
    <tag k="addr:postcode" v="1050"/>
    <tag k="addr:street" v="Margaretenplatz"/>
    <tag k="amenity" v="pub"/>
    <tag k="check_date:opening_hours" v="2022-07-31"/>
    <tag k="name" v="Romeo"/>
    <tag k="opening_hours:signed" v="no"/>
    <tag k="outdoor_seating" v="yes"/>
    <tag k="smoking" v="yes"/>
    <tag k="wheelchair" v="no"/>
  </node>
  <node id="6805130587" lat="48.1073614" lon="16.2833628">
    <tag k="addr:city" v="Brunn am Gebirge"/>
    <tag k="addr:housenumber" v="1"/>
    <tag k="addr:postcode" v="2345"/>
    <tag k="addr:street" v="Franz Anderle-Platz"/>
    <tag k="amenity" v="pub"/>
    <tag k="contact:phone" v="+43 676 510 21 88"/>
    <tag k="name" v="nr. uno"/>
    <tag k="opening_hours" v="Mo-Fr 15:00-23:00"/>
  </node>
  <node id="6831452590" lat="48.1750970" lon="16.3300876">
    <tag k="amenity" v="pub"/>
    <tag k="description" v="Irish Pub"/>
    <tag k="indoor_seating" v="yes"/>
    <tag k="name" v="Golden Harp Irish Pub"/>
    <tag k="opening_hours" v="Mo-Sa 10:00-02:00, PH,Su 10:00-24:00"/>
    <tag k="outdoor_seating" v="yes"/>
  </node>
  <node id="6901998056" lat="48.2098719" lon="16.3677959">
    <tag k="addr:housenumber" v="1"/>
    <tag k="addr:street" v="Körblergasse"/>
    <tag k="amenity" v="pub"/>
    <tag k="name" v="Cuban Mojito Bar"/>
    <tag k="phone" v="+436649195501"/>
    <tag k="website" v="cubanmojitobar.at"/>
  </node>
  <node id="7206320006" lat="48.1862712" lon="16.3312438">
    <tag k="amenity" v="pub"/>
    <tag k="delivery" v="no"/>
    <tag k="name" v="Mutzenbacher"/>
    <tag k="opening_hours" v="Mo-Su 18:00-02:00"/>
    <tag k="operator" v="Ing. Clemens Ptacek"/>
    <tag k="outdoor_seating" v="yes"/>
    <tag k="phone" v="+43 1 286 49 69"/>
    <tag k="smoking" v="outside"/>
    <tag k="website" v="https://www.mutzenbacher.org"/>
  </node>
  <node id="7832417082" lat="48.1707528" lon="16.4196020">
    <tag k="amenity" v="pub"/>
    <tag k="name" v="Stefan"/>
    <tag k="opening_hours" v="Mo-Sa 08:00-22:00"/>
    <tag k="wheelchair" v="yes"/>
  </node>
  <node id="7903921637" lat="48.1727094" lon="16.4176632">
    <tag k="amenity" v="pub"/>
    <tag k="name" v="Gösserstüberl"/>
    <tag k="opening_hours" v="Mo-Fr 08:00-21:00; Sa 08:00-15:00"/>
    <tag k="wheelchair" v="limited"/>
  </node>
  <node id="8443290117" lat="48.2084495" lon="16.3705492">
    <tag k="addr:housenumber" v="29a"/>
    <tag k="addr:street" v="Graben"/>
    <tag k="amenity" v="pub"/>
    <tag k="check_date" v="2022-09-09"/>
    <tag k="indoor_seating" v="yes"/>
    <tag k="name" v="Wiener Stadtbräu"/>
    <tag k="name:de" v="Wiener Stadtbräu"/>
    <tag k="name:en" v="Wiener Stadtbrau"/>
    <tag k="outdoor_seating" v="yes"/>
    <tag k="website" v="https://stadtbraeu.at"/>
  </node>
  <node id="8640795582" lat="48.2361715" lon="16.3775527">
    <tag k="amenity" v="pub"/>
    <tag k="indoor_seating" v="yes"/>
    <tag k="name" v="Irish &amp; International Pub 20"/>
    <tag k="outdoor_seating" v="yes"/>
  </node>
  <node id="8790203521" lat="48.2322544" lon="16.4093246">
    <tag k="amenity" v="pub"/>
    <tag k="name" v="Krokodo"/>
  </node>
  <node id="8830010566" lat="48.1841656" lon="16.3609106">
    <tag k="amenity" v="pub"/>
    <tag k="name" v="Golden Harp"/>
    <tag k="theme" v="irish"/>
    <tag k="website" v="https://www.goldenharp1055.at"/>
  </node>
  <node id="8872711083" lat="48.2173441" lon="16.3922908">
    <tag k="amenity" v="pub"/>
    <tag k="name" v="Café Bar Bier &amp; Zeit"/>
  </node>
  <node id="9090956956" lat="48.1976525" lon="16.3677521">
    <tag k="addr:city" v="Wien"/>
    <tag k="addr:country" v="AT"/>
    <tag k="addr:housenumber" v="3"/>
    <tag k="addr:postcode" v="1040"/>
    <tag k="addr:street" v="Rilkeplatz"/>
    <tag k="amenity" v="pub"/>
    <tag k="brewery" v="Brewdog;Guinness;Kilkenny;London Pride;Murphy's;Newcastle;O'Hara's"/>
    <tag k="contact:email" v="contact@trinityirishbar.com"/>
    <tag k="contact:phone" v="+43 1 2266866"/>
    <tag k="contact:website" v="https://trinityirishbar.com"/>
    <tag k="name" v="Trinity"/>
    <tag k="opening_hours" v="Mo-We 16:00-24:00, Th-Sa 16:00-02:00"/>
    <tag k="operator" v="Irish Pub O'Hara Betriebs GmbH"/>
    <tag k="smoking" v="no"/>
  </node>
  <node id="9176004538" lat="48.2515412" lon="16.3698577">
    <tag k="amenity" v="pub"/>
    <tag k="name" v="Shakes &amp; Beer"/>
  </node>
  <node id="9219707152" lat="48.2879534" lon="16.5433550">
    <tag k="addr:city" v="Aderklaa"/>
    <tag k="addr:country" v="AT"/>
    <tag k="addr:postcode" v="2232"/>
    <tag k="amenity" v="pub"/>
    <tag k="contact:phone" v="+43 664 462 72 50"/>
    <tag k="name" v="Toni's Steckerlfischgrill"/>
  </node>
  <node id="9493774209" lat="48.2194276" lon="16.3207216">
    <tag k="amenity" v="pub"/>
    <tag k="name" v="Post Stüberl"/>
  </node>
  <node id="9493776449" lat="48.2202469" lon="16.3209992">
    <tag k="amenity" v="pub"/>
    <tag k="name" v="Brand Cafe"/>
  </node>
  <node id="9521102820" lat="48.2255281" lon="16.3448279">
    <tag k="addr:city" v="Wien"/>
    <tag k="addr:country" v="AT"/>
    <tag k="addr:housenumber" v="2"/>
    <tag k="addr:postcode" v="1180"/>
    <tag k="addr:street" v="Gertrudplatz"/>
    <tag k="amenity" v="pub"/>
    <tag k="name" v="Oskar"/>
    <tag k="website" v="https://www.ozkar.at/"/>
  </node>
  <node id="9588100533" lat="48.2171576" lon="16.3369622">
    <tag k="addr:city" v="Wien"/>
    <tag k="addr:country" v="AT"/>
    <tag k="addr:housenumber" v="40"/>
    <tag k="addr:postcode" v="1170"/>
    <tag k="addr:street" v="Hernalser Hauptstraße"/>
    <tag k="amenity" v="pub"/>
    <tag k="at_bev:addr_date" v="2021-10-01"/>
    <tag k="name" v="Espresso Slatki San"/>
  </node>
  <node id="9666924534" lat="48.1924824" lon="16.3858127">
    <tag k="addr:city" v="Wien"/>
    <tag k="addr:housenumber" v="20"/>
    <tag k="addr:postcode" v="1030"/>
    <tag k="addr:street" v="Fasangasse"/>
    <tag k="amenity" v="pub"/>
    <tag k="name" v="Viki's Pub so oder so"/>
    <tag k="opening_hours" v="Mo-Sa 16:00–02:00"/>
  </node>
  <node id="9792243137" lat="48.2148196" lon="16.3376278">
    <tag k="addr:city" v="Wien"/>
    <tag k="addr:country" v="AT"/>
    <tag k="addr:housenumber" v="21"/>
    <tag k="addr:postcode" v="1160"/>
    <tag k="addr:street" v="Ottakringer Straße"/>
    <tag k="amenity" v="pub"/>
    <tag k="at_bev:addr_date" v="2022-04-01"/>
    <tag k="name" v="Aurora"/>
  </node>
  <node id="9812181479" lat="48.2175940" lon="16.3347560">
    <tag k="amenity" v="pub"/>
    <tag k="name" v="The Green Room"/>
  </node>
  <node id="9872391526" lat="48.2251110" lon="16.3117074">
    <tag k="addr:housenumber" v="210"/>
    <tag k="addr:postcode" v="1170"/>
    <tag k="addr:street" v="Hernalser Hauptstraße"/>
    <tag k="amenity" v="pub"/>
    <tag k="name" v="Cafe Pub Weinhold"/>
  </node>

</osm>